; ======================================================================
; Prusawire CoreXZ demo: Skywriter
; Motion only - no heating, no extrusion. Generated by make_demos.py
; Safe box: X 15.0-235.0  Y 20.0-190.0  Z 25.0-170.0
; Requested speeds capped at 300 mm/s; Klipper further clamps to printer.cfg limits.
; Clear the bed before running!
; ======================================================================
M107                ; part fan off (nothing to cool)
CHOME               ; home (stock macro homes only if needed)
G90                 ; absolute positioning
G21                 ; millimetres
G1 Z97.500 F3600   ; lift to demo height
G1 X125.000 Y105.000 F9000  ; centre
M117 Skywriter: PRUSAWIRE
RESPOND MSG="Skywriter: PRUSAWIRE"
M117 Skywriter: PRUSAWIRE  [P]
RESPOND MSG="Skywriter: PRUSAWIRE  [P]"
G1 X90.952 Z152.500 F18000
G1 Z42.500 F7200
G1 Z152.500 F18000
G1 X138.095 F7200
G1 X153.810 Z147.262 F7200
G1 X159.048 Z142.024 F7200
G1 X164.286 Z131.548 F7200
G1 Z115.833 F7200
G1 X159.048 Z105.357 F7200
G1 X153.810 Z100.119 F7200
G1 X138.095 Z94.881 F7200
G1 X90.952 F7200
G4 P700
M117 Skywriter: PRUSAWIRE  [R]
RESPOND MSG="Skywriter: PRUSAWIRE  [R]"
G1 Z152.500 F18000
G1 Z42.500 F7200
G1 Z152.500 F18000
G1 X138.095 F7200
G1 X153.810 Z147.262 F7200
G1 X159.048 Z142.024 F7200
G1 X164.286 Z131.548 F7200
G1 Z121.071 F7200
G1 X159.048 Z110.595 F7200
G1 X153.810 Z105.357 F7200
G1 X138.095 Z100.119 F7200
G1 X90.952 F7200
G1 X127.619 F18000
G1 X164.286 Z42.500 F7200
G4 P700
M117 Skywriter: PRUSAWIRE  [U]
RESPOND MSG="Skywriter: PRUSAWIRE  [U]"
G1 X88.333 Z152.500 F18000
G1 Z73.929 F7200
G1 X93.571 Z58.214 F7200
G1 X104.048 Z47.738 F7200
G1 X119.762 Z42.500 F7200
G1 X130.238 F7200
G1 X145.952 Z47.738 F7200
G1 X156.429 Z58.214 F7200
G1 X161.667 Z73.929 F7200
G1 Z152.500 F7200
G4 P700
M117 Skywriter: PRUSAWIRE  [S]
RESPOND MSG="Skywriter: PRUSAWIRE  [S]"
G1 Z136.786 F18000
G1 X151.190 Z147.262 F7200
G1 X135.476 Z152.500 F7200
G1 X114.524 F7200
G1 X98.810 Z147.262 F7200
G1 X88.333 Z136.786 F7200
G1 Z126.310 F7200
G1 X93.571 Z115.833 F7200
G1 X98.810 Z110.595 F7200
G1 X109.286 Z105.357 F7200
G1 X140.714 Z94.881 F7200
G1 X151.190 Z89.643 F7200
G1 X156.429 Z84.405 F7200
G1 X161.667 Z73.929 F7200
G1 Z58.214 F7200
G1 X151.190 Z47.738 F7200
G1 X135.476 Z42.500 F7200
G1 X114.524 F7200
G1 X98.810 Z47.738 F7200
G1 X88.333 Z58.214 F7200
G4 P700
M117 Skywriter: PRUSAWIRE  [A]
RESPOND MSG="Skywriter: PRUSAWIRE  [A]"
G1 X125.000 Z152.500 F18000
G1 X83.095 Z42.500 F7200
G1 X125.000 Z152.500 F18000
G1 X166.905 Z42.500 F7200
G1 X98.810 Z79.167 F18000
G1 X151.190 F7200
G4 P700
M117 Skywriter: PRUSAWIRE  [W]
RESPOND MSG="Skywriter: PRUSAWIRE  [W]"
G1 X72.619 Z152.500 F18000
G1 X98.810 Z42.500 F7200
G1 X125.000 Z152.500 F18000
G1 X98.810 Z42.500 F7200
G1 X125.000 Z152.500 F18000
G1 X151.190 Z42.500 F7200
G1 X177.381 Z152.500 F18000
G1 X151.190 Z42.500 F7200
G4 P700
M117 Skywriter: PRUSAWIRE  [I]
RESPOND MSG="Skywriter: PRUSAWIRE  [I]"
G1 X125.000 Z152.500 F18000
G1 Z42.500 F7200
G4 P700
M117 Skywriter: PRUSAWIRE  [R]
RESPOND MSG="Skywriter: PRUSAWIRE  [R]"
G1 X90.952 Z152.500 F18000
G1 Z42.500 F7200
G1 Z152.500 F18000
G1 X138.095 F7200
G1 X153.810 Z147.262 F7200
G1 X159.048 Z142.024 F7200
G1 X164.286 Z131.548 F7200
G1 Z121.071 F7200
G1 X159.048 Z110.595 F7200
G1 X153.810 Z105.357 F7200
G1 X138.095 Z100.119 F7200
G1 X90.952 F7200
G1 X127.619 F18000
G1 X164.286 Z42.500 F7200
G4 P700
M117 Skywriter: PRUSAWIRE  [E]
RESPOND MSG="Skywriter: PRUSAWIRE  [E]"
G1 X96.190 Z152.500 F18000
G1 Z42.500 F7200
G1 Z152.500 F18000
G1 X164.286 F7200
G1 X96.190 Z100.119 F18000
G1 X138.095 F7200
G1 X96.190 Z42.500 F18000
G1 X164.286 F7200
G4 P700
G1 X125.000 Z97.500 F9000
G4 P600
M400
M117 Prusawire - CoreXZ
RESPOND MSG="Prusawire - CoreXZ"
; end of demo - motors stay enabled so the gantry holds position
