; ======================================================================
; Prusawire CoreXZ demo: Z zigzag
; Motion only - no heating, no extrusion. Generated by make_demos.py
; Safe box: X 15.0-235.0  Y 20.0-190.0  Z 25.0-170.0
; Requested speeds capped at 300 mm/s; Klipper further clamps to printer.cfg limits.
; Clear the bed before running!
; ======================================================================
M107                ; part fan off (nothing to cool)
CHOME               ; home (stock macro homes only if needed)
G90                 ; absolute positioning
G21                 ; millimetres
G1 Z97.500 F3600   ; lift to demo height
G1 X125.000 Y105.000 F9000  ; centre
M117 Z zigzag - Z as fast as X
RESPOND MSG="Z zigzag - Z as fast as X"
G1 X20.000 Z42.500 F9000
G4 P500
M117 Z zigzag 100 mm/s
RESPOND MSG="Z zigzag 100 mm/s"
G1 X33.125 Z152.500 F6000
G1 X46.250 Z42.500 F6000
G1 X59.375 Z152.500 F6000
G1 X72.500 Z42.500 F6000
G1 X85.625 Z152.500 F6000
G1 X98.750 Z42.500 F6000
G1 X111.875 Z152.500 F6000
G1 X125.000 Z42.500 F6000
G1 X138.125 Z152.500 F6000
G1 X151.250 Z42.500 F6000
G1 X164.375 Z152.500 F6000
G1 X177.500 Z42.500 F6000
G1 X190.625 Z152.500 F6000
G1 X203.750 Z42.500 F6000
G1 X216.875 Z152.500 F6000
G1 X230.000 Z42.500 F6000
G1 X216.875 Z152.500 F6000
G1 X203.750 Z42.500 F6000
G1 X190.625 Z152.500 F6000
G1 X177.500 Z42.500 F6000
G1 X164.375 Z152.500 F6000
G1 X151.250 Z42.500 F6000
G1 X138.125 Z152.500 F6000
G1 X125.000 Z42.500 F6000
G1 X111.875 Z152.500 F6000
G1 X98.750 Z42.500 F6000
G1 X85.625 Z152.500 F6000
G1 X72.500 Z42.500 F6000
G1 X59.375 Z152.500 F6000
G1 X46.250 Z42.500 F6000
G1 X33.125 Z152.500 F6000
G1 X20.000 Z42.500 F6000
G4 P400
M117 Z zigzag 200 mm/s
RESPOND MSG="Z zigzag 200 mm/s"
G1 X33.125 Z152.500 F12000
G1 X46.250 Z42.500 F12000
G1 X59.375 Z152.500 F12000
G1 X72.500 Z42.500 F12000
G1 X85.625 Z152.500 F12000
G1 X98.750 Z42.500 F12000
G1 X111.875 Z152.500 F12000
G1 X125.000 Z42.500 F12000
G1 X138.125 Z152.500 F12000
G1 X151.250 Z42.500 F12000
G1 X164.375 Z152.500 F12000
G1 X177.500 Z42.500 F12000
G1 X190.625 Z152.500 F12000
G1 X203.750 Z42.500 F12000
G1 X216.875 Z152.500 F12000
G1 X230.000 Z42.500 F12000
G1 X216.875 Z152.500 F12000
G1 X203.750 Z42.500 F12000
G1 X190.625 Z152.500 F12000
G1 X177.500 Z42.500 F12000
G1 X164.375 Z152.500 F12000
G1 X151.250 Z42.500 F12000
G1 X138.125 Z152.500 F12000
G1 X125.000 Z42.500 F12000
G1 X111.875 Z152.500 F12000
G1 X98.750 Z42.500 F12000
G1 X85.625 Z152.500 F12000
G1 X72.500 Z42.500 F12000
G1 X59.375 Z152.500 F12000
G1 X46.250 Z42.500 F12000
G1 X33.125 Z152.500 F12000
G1 X20.000 Z42.500 F12000
G4 P400
M117 Z zigzag 300 mm/s
RESPOND MSG="Z zigzag 300 mm/s"
G1 X33.125 Z152.500 F18000
G1 X46.250 Z42.500 F18000
G1 X59.375 Z152.500 F18000
G1 X72.500 Z42.500 F18000
G1 X85.625 Z152.500 F18000
G1 X98.750 Z42.500 F18000
G1 X111.875 Z152.500 F18000
G1 X125.000 Z42.500 F18000
G1 X138.125 Z152.500 F18000
G1 X151.250 Z42.500 F18000
G1 X164.375 Z152.500 F18000
G1 X177.500 Z42.500 F18000
G1 X190.625 Z152.500 F18000
G1 X203.750 Z42.500 F18000
G1 X216.875 Z152.500 F18000
G1 X230.000 Z42.500 F18000
G1 X216.875 Z152.500 F18000
G1 X203.750 Z42.500 F18000
G1 X190.625 Z152.500 F18000
G1 X177.500 Z42.500 F18000
G1 X164.375 Z152.500 F18000
G1 X151.250 Z42.500 F18000
G1 X138.125 Z152.500 F18000
G1 X125.000 Z42.500 F18000
G1 X111.875 Z152.500 F18000
G1 X98.750 Z42.500 F18000
G1 X85.625 Z152.500 F18000
G1 X72.500 Z42.500 F18000
G1 X59.375 Z152.500 F18000
G1 X46.250 Z42.500 F18000
G1 X33.125 Z152.500 F18000
G1 X20.000 Z42.500 F18000
G4 P400
M117 Z buzz - rapid reversals
RESPOND MSG="Z buzz - rapid reversals"
G1 Z97.500 F9000
G1 X23.500 Z105.500 F18000
G1 X27.000 Z89.500 F18000
G1 X30.500 Z105.500 F18000
G1 X34.000 Z89.500 F18000
G1 X37.500 Z105.500 F18000
G1 X41.000 Z89.500 F18000
G1 X44.500 Z105.500 F18000
G1 X48.000 Z89.500 F18000
G1 X51.500 Z105.500 F18000
G1 X55.000 Z89.500 F18000
G1 X58.500 Z105.500 F18000
G1 X62.000 Z89.500 F18000
G1 X65.500 Z105.500 F18000
G1 X69.000 Z89.500 F18000
G1 X72.500 Z105.500 F18000
G1 X76.000 Z89.500 F18000
G1 X79.500 Z105.500 F18000
G1 X83.000 Z89.500 F18000
G1 X86.500 Z105.500 F18000
G1 X90.000 Z89.500 F18000
G1 X93.500 Z105.500 F18000
G1 X97.000 Z89.500 F18000
G1 X100.500 Z105.500 F18000
G1 X104.000 Z89.500 F18000
G1 X107.500 Z105.500 F18000
G1 X111.000 Z89.500 F18000
G1 X114.500 Z105.500 F18000
G1 X118.000 Z89.500 F18000
G1 X121.500 Z105.500 F18000
G1 X125.000 Z89.500 F18000
G1 X128.500 Z105.500 F18000
G1 X132.000 Z89.500 F18000
G1 X135.500 Z105.500 F18000
G1 X139.000 Z89.500 F18000
G1 X142.500 Z105.500 F18000
G1 X146.000 Z89.500 F18000
G1 X149.500 Z105.500 F18000
G1 X153.000 Z89.500 F18000
G1 X156.500 Z105.500 F18000
G1 X160.000 Z89.500 F18000
G1 X163.500 Z105.500 F18000
G1 X167.000 Z89.500 F18000
G1 X170.500 Z105.500 F18000
G1 X174.000 Z89.500 F18000
G1 X177.500 Z105.500 F18000
G1 X181.000 Z89.500 F18000
G1 X184.500 Z105.500 F18000
G1 X188.000 Z89.500 F18000
G1 X191.500 Z105.500 F18000
G1 X195.000 Z89.500 F18000
G1 X198.500 Z105.500 F18000
G1 X202.000 Z89.500 F18000
G1 X205.500 Z105.500 F18000
G1 X209.000 Z89.500 F18000
G1 X212.500 Z105.500 F18000
G1 X216.000 Z89.500 F18000
G1 X219.500 Z105.500 F18000
G1 X223.000 Z89.500 F18000
G1 X226.500 Z105.500 F18000
G1 X230.000 Z89.500 F18000
G1 X226.500 Z105.500 F18000
G1 X223.000 Z89.500 F18000
G1 X219.500 Z105.500 F18000
G1 X216.000 Z89.500 F18000
G1 X212.500 Z105.500 F18000
G1 X209.000 Z89.500 F18000
G1 X205.500 Z105.500 F18000
G1 X202.000 Z89.500 F18000
G1 X198.500 Z105.500 F18000
G1 X195.000 Z89.500 F18000
G1 X191.500 Z105.500 F18000
G1 X188.000 Z89.500 F18000
G1 X184.500 Z105.500 F18000
G1 X181.000 Z89.500 F18000
G1 X177.500 Z105.500 F18000
G1 X174.000 Z89.500 F18000
G1 X170.500 Z105.500 F18000
G1 X167.000 Z89.500 F18000
G1 X163.500 Z105.500 F18000
G1 X160.000 Z89.500 F18000
G1 X156.500 Z105.500 F18000
G1 X153.000 Z89.500 F18000
G1 X149.500 Z105.500 F18000
G1 X146.000 Z89.500 F18000
G1 X142.500 Z105.500 F18000
G1 X139.000 Z89.500 F18000
G1 X135.500 Z105.500 F18000
G1 X132.000 Z89.500 F18000
G1 X128.500 Z105.500 F18000
G1 X125.000 Z89.500 F18000
G1 X121.500 Z105.500 F18000
G1 X118.000 Z89.500 F18000
G1 X114.500 Z105.500 F18000
G1 X111.000 Z89.500 F18000
G1 X107.500 Z105.500 F18000
G1 X104.000 Z89.500 F18000
G1 X100.500 Z105.500 F18000
G1 X97.000 Z89.500 F18000
G1 X93.500 Z105.500 F18000
G1 X90.000 Z89.500 F18000
G1 X86.500 Z105.500 F18000
G1 X83.000 Z89.500 F18000
G1 X79.500 Z105.500 F18000
G1 X76.000 Z89.500 F18000
G1 X72.500 Z105.500 F18000
G1 X69.000 Z89.500 F18000
G1 X65.500 Z105.500 F18000
G1 X62.000 Z89.500 F18000
G1 X58.500 Z105.500 F18000
G1 X55.000 Z89.500 F18000
G1 X51.500 Z105.500 F18000
G1 X48.000 Z89.500 F18000
G1 X44.500 Z105.500 F18000
G1 X41.000 Z89.500 F18000
G1 X37.500 Z105.500 F18000
G1 X34.000 Z89.500 F18000
G1 X30.500 Z105.500 F18000
G1 X27.000 Z89.500 F18000
G1 X23.500 Z105.500 F18000
G1 X20.000 Z89.500 F18000
G1 X125.000 Z97.500 F9000
G4 P400
M400
M117 Prusawire - CoreXZ
RESPOND MSG="Prusawire - CoreXZ"
; end of demo - motors stay enabled so the gantry holds position
