; ======================================================================
; Prusawire CoreXZ demo: One-motor diamond
; Motion only - no heating, no extrusion. Generated by make_demos.py
; Safe box: X 15.0-235.0  Y 20.0-190.0  Z 25.0-170.0
; Requested speeds capped at 300 mm/s; Klipper further clamps to printer.cfg limits.
; Clear the bed before running!
; ======================================================================
M107                ; part fan off (nothing to cool)
CHOME               ; home (stock macro homes only if needed)
G90                 ; absolute positioning
G21                 ; millimetres
G1 Z97.500 F3600   ; lift to demo height
G1 X125.000 Y105.000 F9000  ; centre
M117 Diamond - each edge uses ONE motor
RESPOND MSG="Diamond - each edge uses ONE motor"
G1 X190.000 F9000
G4 P400
G1 X125.000 Z162.500 F18000
G1 X60.000 Z97.500 F18000
G1 X125.000 Z32.500 F18000
G1 X190.000 Z97.500 F18000
G1 X125.000 Z162.500 F18000
G1 X60.000 Z97.500 F18000
G1 X125.000 Z32.500 F18000
G1 X190.000 Z97.500 F18000
G1 X125.000 Z162.500 F18000
G1 X60.000 Z97.500 F18000
G1 X125.000 Z32.500 F18000
G1 X190.000 Z97.500 F18000
G4 P500
M117 Square - each edge uses BOTH motors
RESPOND MSG="Square - each edge uses BOTH motors"
G1 Z162.500 F9000
G4 P400
G1 X60.000 F18000
G1 Z32.500 F18000
G1 X190.000 F18000
G1 Z162.500 F18000
G1 X60.000 F18000
G1 Z32.500 F18000
G1 X190.000 F18000
G1 Z162.500 F18000
G1 X60.000 F18000
G1 Z32.500 F18000
G1 X190.000 F18000
G1 Z162.500 F18000
G4 P500
M117 Nested diamonds
RESPOND MSG="Nested diamonds"
G1 X185.000 Z97.500 F18000
G1 X125.000 Z157.500 F18000
G1 X65.000 Z97.500 F18000
G1 X125.000 Z37.500 F18000
G1 X185.000 Z97.500 F18000
G1 X170.000 F18000
G1 X125.000 Z142.500 F18000
G1 X80.000 Z97.500 F18000
G1 X125.000 Z52.500 F18000
G1 X170.000 Z97.500 F18000
G1 X155.000 F18000
G1 X125.000 Z127.500 F18000
G1 X95.000 Z97.500 F18000
G1 X125.000 Z67.500 F18000
G1 X155.000 Z97.500 F18000
G1 X140.000 F18000
G1 X125.000 Z112.500 F18000
G1 X110.000 Z97.500 F18000
G1 X125.000 Z82.500 F18000
G1 X140.000 Z97.500 F18000
G1 X155.000 F18000
G1 X125.000 Z127.500 F18000
G1 X95.000 Z97.500 F18000
G1 X125.000 Z67.500 F18000
G1 X155.000 Z97.500 F18000
G1 X170.000 F18000
G1 X125.000 Z142.500 F18000
G1 X80.000 Z97.500 F18000
G1 X125.000 Z52.500 F18000
G1 X170.000 Z97.500 F18000
G1 X185.000 F18000
G1 X125.000 Z157.500 F18000
G1 X65.000 Z97.500 F18000
G1 X125.000 Z37.500 F18000
G1 X185.000 Z97.500 F18000
G1 X125.000 F9000
G4 P400
M400
M117 Prusawire - CoreXZ
RESPOND MSG="Prusawire - CoreXZ"
; end of demo - motors stay enabled so the gantry holds position
