; ======================================================================
; Prusawire CoreXZ demo: 3D helix
; Motion only - no heating, no extrusion. Generated by make_demos.py
; Safe box: X 15.0-235.0  Y 20.0-190.0  Z 25.0-170.0
; Requested speeds capped at 300 mm/s; Klipper further clamps to printer.cfg limits.
; Clear the bed before running!
; ======================================================================
M107                ; part fan off (nothing to cool)
CHOME               ; home (stock macro homes only if needed)
G90                 ; absolute positioning
G21                 ; millimetres
G1 Z97.500 F3600   ; lift to demo height
G1 X125.000 Y105.000 F9000  ; centre
M117 3D helix - bed + gantry
RESPOND MSG="3D helix - bed + gantry"
G1 X170.000 Z30.000 F9000
G4 P400
G1 X169.890 Y108.139 Z30.188 F9000
G1 X169.562 Y111.263 Z30.375 F9000
G1 X169.017 Y114.356 Z30.562 F9000
G1 X168.257 Y117.404 Z30.750 F9000
G1 X167.286 Y120.391 Z30.938 F9000
G1 X166.110 Y123.303 Z31.125 F9000
G1 X164.733 Y126.126 Z31.312 F9000
G1 X163.162 Y128.846 Z31.500 F9000
G1 X161.406 Y131.450 Z31.688 F9000
G1 X159.472 Y133.925 Z31.875 F9000
G1 X157.370 Y136.260 Z32.062 F9000
G1 X155.111 Y138.442 Z32.250 F9000
G1 X152.705 Y140.460 Z32.438 F9000
G1 X150.164 Y142.307 Z32.625 F9000
G1 X147.500 Y143.971 Z32.812 F9000
G1 X144.727 Y145.446 Z33.000 F9000
G1 X141.857 Y146.723 Z33.188 F9000
G1 X138.906 Y147.798 Z33.375 F9000
G1 X135.886 Y148.663 Z33.562 F9000
G1 X132.814 Y149.316 Z33.750 F9000
G1 X129.704 Y149.753 Z33.938 F9000
G1 X126.570 Y149.973 Z34.125 F9000
G1 X123.430 Z34.312 F9000
G1 X120.296 Y149.753 Z34.500 F9000
G1 X117.186 Y149.316 Z34.688 F9000
G1 X114.114 Y148.663 Z34.875 F9000
G1 X111.094 Y147.798 Z35.062 F9000
G1 X108.143 Y146.723 Z35.250 F9000
G1 X105.273 Y145.446 Z35.438 F9000
G1 X102.500 Y143.971 Z35.625 F9000
G1 X99.836 Y142.307 Z35.812 F9000
G1 X97.295 Y140.460 Z36.000 F9000
G1 X94.889 Y138.442 Z36.188 F9000
G1 X92.630 Y136.260 Z36.375 F9000
G1 X90.528 Y133.925 Z36.562 F9000
G1 X88.594 Y131.450 Z36.750 F9000
G1 X86.838 Y128.846 Z36.938 F9000
G1 X85.267 Y126.126 Z37.125 F9000
G1 X83.890 Y123.303 Z37.312 F9000
G1 X82.714 Y120.391 Z37.500 F9000
G1 X81.743 Y117.404 Z37.688 F9000
G1 X80.983 Y114.356 Z37.875 F9000
G1 X80.438 Y111.263 Z38.062 F9000
G1 X80.110 Y108.139 Z38.250 F9000
G1 X80.000 Y105.000 Z38.438 F9000
G1 X80.110 Y101.861 Z38.625 F9000
G1 X80.438 Y98.737 Z38.812 F9000
G1 X80.983 Y95.644 Z39.000 F9000
G1 X81.743 Y92.596 Z39.188 F9000
G1 X82.714 Y89.609 Z39.375 F9000
G1 X83.890 Y86.697 Z39.562 F9000
G1 X85.267 Y83.874 Z39.750 F9000
G1 X86.838 Y81.154 Z39.938 F9000
G1 X88.594 Y78.550 Z40.125 F9000
G1 X90.528 Y76.075 Z40.312 F9000
G1 X92.630 Y73.740 Z40.500 F9000
G1 X94.889 Y71.558 Z40.688 F9000
G1 X97.295 Y69.540 Z40.875 F9000
G1 X99.836 Y67.693 Z41.062 F9000
G1 X102.500 Y66.029 Z41.250 F9000
G1 X105.273 Y64.554 Z41.438 F9000
G1 X108.143 Y63.277 Z41.625 F9000
G1 X111.094 Y62.202 Z41.812 F9000
G1 X114.114 Y61.337 Z42.000 F9000
G1 X117.186 Y60.684 Z42.188 F9000
G1 X120.296 Y60.247 Z42.375 F9000
G1 X123.430 Y60.027 Z42.562 F9000
G1 X126.570 Z42.750 F9000
G1 X129.704 Y60.247 Z42.938 F9000
G1 X132.814 Y60.684 Z43.125 F9000
G1 X135.886 Y61.337 Z43.312 F9000
G1 X138.906 Y62.202 Z43.500 F9000
G1 X141.857 Y63.277 Z43.688 F9000
G1 X144.727 Y64.554 Z43.875 F9000
G1 X147.500 Y66.029 Z44.062 F9000
G1 X150.164 Y67.693 Z44.250 F9000
G1 X152.705 Y69.540 Z44.438 F9000
G1 X155.111 Y71.558 Z44.625 F9000
G1 X157.370 Y73.740 Z44.812 F9000
G1 X159.472 Y76.075 Z45.000 F9000
G1 X161.406 Y78.550 Z45.188 F9000
G1 X163.162 Y81.154 Z45.375 F9000
G1 X164.733 Y83.874 Z45.562 F9000
G1 X166.110 Y86.697 Z45.750 F9000
G1 X167.286 Y89.609 Z45.938 F9000
G1 X168.257 Y92.596 Z46.125 F9000
G1 X169.017 Y95.644 Z46.312 F9000
G1 X169.562 Y98.737 Z46.500 F9000
G1 X169.890 Y101.861 Z46.688 F9000
G1 X170.000 Y105.000 Z46.875 F9000
G1 X169.890 Y108.139 Z47.062 F9000
G1 X169.562 Y111.263 Z47.250 F9000
G1 X169.017 Y114.356 Z47.438 F9000
G1 X168.257 Y117.404 Z47.625 F9000
G1 X167.286 Y120.391 Z47.812 F9000
G1 X166.110 Y123.303 Z48.000 F9000
G1 X164.733 Y126.126 Z48.188 F9000
G1 X163.162 Y128.846 Z48.375 F9000
G1 X161.406 Y131.450 Z48.562 F9000
G1 X159.472 Y133.925 Z48.750 F9000
G1 X157.370 Y136.260 Z48.938 F9000
G1 X155.111 Y138.442 Z49.125 F9000
G1 X152.705 Y140.460 Z49.312 F9000
G1 X150.164 Y142.307 Z49.500 F9000
G1 X147.500 Y143.971 Z49.688 F9000
G1 X144.727 Y145.446 Z49.875 F9000
G1 X141.857 Y146.723 Z50.062 F9000
G1 X138.906 Y147.798 Z50.250 F9000
G1 X135.886 Y148.663 Z50.438 F9000
G1 X132.814 Y149.316 Z50.625 F9000
G1 X129.704 Y149.753 Z50.812 F9000
G1 X126.570 Y149.973 Z51.000 F9000
G1 X123.430 Z51.188 F9000
G1 X120.296 Y149.753 Z51.375 F9000
G1 X117.186 Y149.316 Z51.562 F9000
G1 X114.114 Y148.663 Z51.750 F9000
G1 X111.094 Y147.798 Z51.938 F9000
G1 X108.143 Y146.723 Z52.125 F9000
G1 X105.273 Y145.446 Z52.312 F9000
G1 X102.500 Y143.971 Z52.500 F9000
G1 X99.836 Y142.307 Z52.688 F9000
G1 X97.295 Y140.460 Z52.875 F9000
G1 X94.889 Y138.442 Z53.062 F9000
G1 X92.630 Y136.260 Z53.250 F9000
G1 X90.528 Y133.925 Z53.438 F9000
G1 X88.594 Y131.450 Z53.625 F9000
G1 X86.838 Y128.846 Z53.812 F9000
G1 X85.267 Y126.126 Z54.000 F9000
G1 X83.890 Y123.303 Z54.188 F9000
G1 X82.714 Y120.391 Z54.375 F9000
G1 X81.743 Y117.404 Z54.562 F9000
G1 X80.983 Y114.356 Z54.750 F9000
G1 X80.438 Y111.263 Z54.938 F9000
G1 X80.110 Y108.139 Z55.125 F9000
G1 X80.000 Y105.000 Z55.312 F9000
G1 X80.110 Y101.861 Z55.500 F9000
G1 X80.438 Y98.737 Z55.688 F9000
G1 X80.983 Y95.644 Z55.875 F9000
G1 X81.743 Y92.596 Z56.062 F9000
G1 X82.714 Y89.609 Z56.250 F9000
G1 X83.890 Y86.697 Z56.438 F9000
G1 X85.267 Y83.874 Z56.625 F9000
G1 X86.838 Y81.154 Z56.812 F9000
G1 X88.594 Y78.550 Z57.000 F9000
G1 X90.528 Y76.075 Z57.188 F9000
G1 X92.630 Y73.740 Z57.375 F9000
G1 X94.889 Y71.558 Z57.562 F9000
G1 X97.295 Y69.540 Z57.750 F9000
G1 X99.836 Y67.693 Z57.938 F9000
G1 X102.500 Y66.029 Z58.125 F9000
G1 X105.273 Y64.554 Z58.312 F9000
G1 X108.143 Y63.277 Z58.500 F9000
G1 X111.094 Y62.202 Z58.688 F9000
G1 X114.114 Y61.337 Z58.875 F9000
G1 X117.186 Y60.684 Z59.062 F9000
G1 X120.296 Y60.247 Z59.250 F9000
G1 X123.430 Y60.027 Z59.438 F9000
G1 X126.570 Z59.625 F9000
G1 X129.704 Y60.247 Z59.812 F9000
G1 X132.814 Y60.684 Z60.000 F9000
G1 X135.886 Y61.337 Z60.188 F9000
G1 X138.906 Y62.202 Z60.375 F9000
G1 X141.857 Y63.277 Z60.562 F9000
G1 X144.727 Y64.554 Z60.750 F9000
G1 X147.500 Y66.029 Z60.938 F9000
G1 X150.164 Y67.693 Z61.125 F9000
G1 X152.705 Y69.540 Z61.312 F9000
G1 X155.111 Y71.558 Z61.500 F9000
G1 X157.370 Y73.740 Z61.688 F9000
G1 X159.472 Y76.075 Z61.875 F9000
G1 X161.406 Y78.550 Z62.062 F9000
G1 X163.162 Y81.154 Z62.250 F9000
G1 X164.733 Y83.874 Z62.438 F9000
G1 X166.110 Y86.697 Z62.625 F9000
G1 X167.286 Y89.609 Z62.812 F9000
G1 X168.257 Y92.596 Z63.000 F9000
G1 X169.017 Y95.644 Z63.188 F9000
G1 X169.562 Y98.737 Z63.375 F9000
G1 X169.890 Y101.861 Z63.562 F9000
G1 X170.000 Y105.000 Z63.750 F9000
G1 X169.890 Y108.139 Z63.938 F9000
G1 X169.562 Y111.263 Z64.125 F9000
G1 X169.017 Y114.356 Z64.312 F9000
G1 X168.257 Y117.404 Z64.500 F9000
G1 X167.286 Y120.391 Z64.688 F9000
G1 X166.110 Y123.303 Z64.875 F9000
G1 X164.733 Y126.126 Z65.062 F9000
G1 X163.162 Y128.846 Z65.250 F9000
G1 X161.406 Y131.450 Z65.438 F9000
G1 X159.472 Y133.925 Z65.625 F9000
G1 X157.370 Y136.260 Z65.812 F9000
G1 X155.111 Y138.442 Z66.000 F9000
G1 X152.705 Y140.460 Z66.188 F9000
G1 X150.164 Y142.307 Z66.375 F9000
G1 X147.500 Y143.971 Z66.562 F9000
G1 X144.727 Y145.446 Z66.750 F9000
G1 X141.857 Y146.723 Z66.938 F9000
G1 X138.906 Y147.798 Z67.125 F9000
G1 X135.886 Y148.663 Z67.312 F9000
G1 X132.814 Y149.316 Z67.500 F9000
G1 X129.704 Y149.753 Z67.688 F9000
G1 X126.570 Y149.973 Z67.875 F9000
G1 X123.430 Z68.062 F9000
G1 X120.296 Y149.753 Z68.250 F9000
G1 X117.186 Y149.316 Z68.438 F9000
G1 X114.114 Y148.663 Z68.625 F9000
G1 X111.094 Y147.798 Z68.812 F9000
G1 X108.143 Y146.723 Z69.000 F9000
G1 X105.273 Y145.446 Z69.188 F9000
G1 X102.500 Y143.971 Z69.375 F9000
G1 X99.836 Y142.307 Z69.562 F9000
G1 X97.295 Y140.460 Z69.750 F9000
G1 X94.889 Y138.442 Z69.938 F9000
G1 X92.630 Y136.260 Z70.125 F9000
G1 X90.528 Y133.925 Z70.312 F9000
G1 X88.594 Y131.450 Z70.500 F9000
G1 X86.838 Y128.846 Z70.688 F9000
G1 X85.267 Y126.126 Z70.875 F9000
G1 X83.890 Y123.303 Z71.062 F9000
G1 X82.714 Y120.391 Z71.250 F9000
G1 X81.743 Y117.404 Z71.438 F9000
G1 X80.983 Y114.356 Z71.625 F9000
G1 X80.438 Y111.263 Z71.812 F9000
G1 X80.110 Y108.139 Z72.000 F9000
G1 X80.000 Y105.000 Z72.188 F9000
G1 X80.110 Y101.861 Z72.375 F9000
G1 X80.438 Y98.737 Z72.562 F9000
G1 X80.983 Y95.644 Z72.750 F9000
G1 X81.743 Y92.596 Z72.938 F9000
G1 X82.714 Y89.609 Z73.125 F9000
G1 X83.890 Y86.697 Z73.312 F9000
G1 X85.267 Y83.874 Z73.500 F9000
G1 X86.838 Y81.154 Z73.688 F9000
G1 X88.594 Y78.550 Z73.875 F9000
G1 X90.528 Y76.075 Z74.062 F9000
G1 X92.630 Y73.740 Z74.250 F9000
G1 X94.889 Y71.558 Z74.438 F9000
G1 X97.295 Y69.540 Z74.625 F9000
G1 X99.836 Y67.693 Z74.812 F9000
G1 X102.500 Y66.029 Z75.000 F9000
G1 X105.273 Y64.554 Z75.188 F9000
G1 X108.143 Y63.277 Z75.375 F9000
G1 X111.094 Y62.202 Z75.562 F9000
G1 X114.114 Y61.337 Z75.750 F9000
G1 X117.186 Y60.684 Z75.938 F9000
G1 X120.296 Y60.247 Z76.125 F9000
G1 X123.430 Y60.027 Z76.312 F9000
G1 X126.570 Z76.500 F9000
G1 X129.704 Y60.247 Z76.688 F9000
G1 X132.814 Y60.684 Z76.875 F9000
G1 X135.886 Y61.337 Z77.062 F9000
G1 X138.906 Y62.202 Z77.250 F9000
G1 X141.857 Y63.277 Z77.438 F9000
G1 X144.727 Y64.554 Z77.625 F9000
G1 X147.500 Y66.029 Z77.812 F9000
G1 X150.164 Y67.693 Z78.000 F9000
G1 X152.705 Y69.540 Z78.188 F9000
G1 X155.111 Y71.558 Z78.375 F9000
G1 X157.370 Y73.740 Z78.562 F9000
G1 X159.472 Y76.075 Z78.750 F9000
G1 X161.406 Y78.550 Z78.938 F9000
G1 X163.162 Y81.154 Z79.125 F9000
G1 X164.733 Y83.874 Z79.312 F9000
G1 X166.110 Y86.697 Z79.500 F9000
G1 X167.286 Y89.609 Z79.688 F9000
G1 X168.257 Y92.596 Z79.875 F9000
G1 X169.017 Y95.644 Z80.062 F9000
G1 X169.562 Y98.737 Z80.250 F9000
G1 X169.890 Y101.861 Z80.438 F9000
G1 X170.000 Y105.000 Z80.625 F9000
G1 X169.890 Y108.139 Z80.812 F9000
G1 X169.562 Y111.263 Z81.000 F9000
G1 X169.017 Y114.356 Z81.188 F9000
G1 X168.257 Y117.404 Z81.375 F9000
G1 X167.286 Y120.391 Z81.562 F9000
G1 X166.110 Y123.303 Z81.750 F9000
G1 X164.733 Y126.126 Z81.938 F9000
G1 X163.162 Y128.846 Z82.125 F9000
G1 X161.406 Y131.450 Z82.312 F9000
G1 X159.472 Y133.925 Z82.500 F9000
G1 X157.370 Y136.260 Z82.688 F9000
G1 X155.111 Y138.442 Z82.875 F9000
G1 X152.705 Y140.460 Z83.062 F9000
G1 X150.164 Y142.307 Z83.250 F9000
G1 X147.500 Y143.971 Z83.438 F9000
G1 X144.727 Y145.446 Z83.625 F9000
G1 X141.857 Y146.723 Z83.812 F9000
G1 X138.906 Y147.798 Z84.000 F9000
G1 X135.886 Y148.663 Z84.188 F9000
G1 X132.814 Y149.316 Z84.375 F9000
G1 X129.704 Y149.753 Z84.562 F9000
G1 X126.570 Y149.973 Z84.750 F9000
G1 X123.430 Z84.938 F9000
G1 X120.296 Y149.753 Z85.125 F9000
G1 X117.186 Y149.316 Z85.312 F9000
G1 X114.114 Y148.663 Z85.500 F9000
G1 X111.094 Y147.798 Z85.688 F9000
G1 X108.143 Y146.723 Z85.875 F9000
G1 X105.273 Y145.446 Z86.062 F9000
G1 X102.500 Y143.971 Z86.250 F9000
G1 X99.836 Y142.307 Z86.438 F9000
G1 X97.295 Y140.460 Z86.625 F9000
G1 X94.889 Y138.442 Z86.812 F9000
G1 X92.630 Y136.260 Z87.000 F9000
G1 X90.528 Y133.925 Z87.188 F9000
G1 X88.594 Y131.450 Z87.375 F9000
G1 X86.838 Y128.846 Z87.562 F9000
G1 X85.267 Y126.126 Z87.750 F9000
G1 X83.890 Y123.303 Z87.938 F9000
G1 X82.714 Y120.391 Z88.125 F9000
G1 X81.743 Y117.404 Z88.312 F9000
G1 X80.983 Y114.356 Z88.500 F9000
G1 X80.438 Y111.263 Z88.688 F9000
G1 X80.110 Y108.139 Z88.875 F9000
G1 X80.000 Y105.000 Z89.062 F9000
G1 X80.110 Y101.861 Z89.250 F9000
G1 X80.438 Y98.737 Z89.438 F9000
G1 X80.983 Y95.644 Z89.625 F9000
G1 X81.743 Y92.596 Z89.812 F9000
G1 X82.714 Y89.609 Z90.000 F9000
G1 X83.890 Y86.697 Z90.188 F9000
G1 X85.267 Y83.874 Z90.375 F9000
G1 X86.838 Y81.154 Z90.562 F9000
G1 X88.594 Y78.550 Z90.750 F9000
G1 X90.528 Y76.075 Z90.938 F9000
G1 X92.630 Y73.740 Z91.125 F9000
G1 X94.889 Y71.558 Z91.312 F9000
G1 X97.295 Y69.540 Z91.500 F9000
G1 X99.836 Y67.693 Z91.688 F9000
G1 X102.500 Y66.029 Z91.875 F9000
G1 X105.273 Y64.554 Z92.062 F9000
G1 X108.143 Y63.277 Z92.250 F9000
G1 X111.094 Y62.202 Z92.438 F9000
G1 X114.114 Y61.337 Z92.625 F9000
G1 X117.186 Y60.684 Z92.812 F9000
G1 X120.296 Y60.247 Z93.000 F9000
G1 X123.430 Y60.027 Z93.188 F9000
G1 X126.570 Z93.375 F9000
G1 X129.704 Y60.247 Z93.562 F9000
G1 X132.814 Y60.684 Z93.750 F9000
G1 X135.886 Y61.337 Z93.938 F9000
G1 X138.906 Y62.202 Z94.125 F9000
G1 X141.857 Y63.277 Z94.312 F9000
G1 X144.727 Y64.554 Z94.500 F9000
G1 X147.500 Y66.029 Z94.688 F9000
G1 X150.164 Y67.693 Z94.875 F9000
G1 X152.705 Y69.540 Z95.062 F9000
G1 X155.111 Y71.558 Z95.250 F9000
G1 X157.370 Y73.740 Z95.438 F9000
G1 X159.472 Y76.075 Z95.625 F9000
G1 X161.406 Y78.550 Z95.812 F9000
G1 X163.162 Y81.154 Z96.000 F9000
G1 X164.733 Y83.874 Z96.188 F9000
G1 X166.110 Y86.697 Z96.375 F9000
G1 X167.286 Y89.609 Z96.562 F9000
G1 X168.257 Y92.596 Z96.750 F9000
G1 X169.017 Y95.644 Z96.938 F9000
G1 X169.562 Y98.737 Z97.125 F9000
G1 X169.890 Y101.861 Z97.312 F9000
G1 X170.000 Y105.000 Z97.500 F9000
G1 X169.890 Y108.139 Z97.688 F9000
G1 X169.562 Y111.263 Z97.875 F9000
G1 X169.017 Y114.356 Z98.062 F9000
G1 X168.257 Y117.404 Z98.250 F9000
G1 X167.286 Y120.391 Z98.438 F9000
G1 X166.110 Y123.303 Z98.625 F9000
G1 X164.733 Y126.126 Z98.812 F9000
G1 X163.162 Y128.846 Z99.000 F9000
G1 X161.406 Y131.450 Z99.188 F9000
G1 X159.472 Y133.925 Z99.375 F9000
G1 X157.370 Y136.260 Z99.562 F9000
G1 X155.111 Y138.442 Z99.750 F9000
G1 X152.705 Y140.460 Z99.938 F9000
G1 X150.164 Y142.307 Z100.125 F9000
G1 X147.500 Y143.971 Z100.312 F9000
G1 X144.727 Y145.446 Z100.500 F9000
G1 X141.857 Y146.723 Z100.688 F9000
G1 X138.906 Y147.798 Z100.875 F9000
G1 X135.886 Y148.663 Z101.062 F9000
G1 X132.814 Y149.316 Z101.250 F9000
G1 X129.704 Y149.753 Z101.438 F9000
G1 X126.570 Y149.973 Z101.625 F9000
G1 X123.430 Z101.812 F9000
G1 X120.296 Y149.753 Z102.000 F9000
G1 X117.186 Y149.316 Z102.188 F9000
G1 X114.114 Y148.663 Z102.375 F9000
G1 X111.094 Y147.798 Z102.562 F9000
G1 X108.143 Y146.723 Z102.750 F9000
G1 X105.273 Y145.446 Z102.938 F9000
G1 X102.500 Y143.971 Z103.125 F9000
G1 X99.836 Y142.307 Z103.312 F9000
G1 X97.295 Y140.460 Z103.500 F9000
G1 X94.889 Y138.442 Z103.688 F9000
G1 X92.630 Y136.260 Z103.875 F9000
G1 X90.528 Y133.925 Z104.062 F9000
G1 X88.594 Y131.450 Z104.250 F9000
G1 X86.838 Y128.846 Z104.438 F9000
G1 X85.267 Y126.126 Z104.625 F9000
G1 X83.890 Y123.303 Z104.812 F9000
G1 X82.714 Y120.391 Z105.000 F9000
G1 X81.743 Y117.404 Z105.188 F9000
G1 X80.983 Y114.356 Z105.375 F9000
G1 X80.438 Y111.263 Z105.562 F9000
G1 X80.110 Y108.139 Z105.750 F9000
G1 X80.000 Y105.000 Z105.938 F9000
G1 X80.110 Y101.861 Z106.125 F9000
G1 X80.438 Y98.737 Z106.312 F9000
G1 X80.983 Y95.644 Z106.500 F9000
G1 X81.743 Y92.596 Z106.688 F9000
G1 X82.714 Y89.609 Z106.875 F9000
G1 X83.890 Y86.697 Z107.062 F9000
G1 X85.267 Y83.874 Z107.250 F9000
G1 X86.838 Y81.154 Z107.438 F9000
G1 X88.594 Y78.550 Z107.625 F9000
G1 X90.528 Y76.075 Z107.812 F9000
G1 X92.630 Y73.740 Z108.000 F9000
G1 X94.889 Y71.558 Z108.188 F9000
G1 X97.295 Y69.540 Z108.375 F9000
G1 X99.836 Y67.693 Z108.562 F9000
G1 X102.500 Y66.029 Z108.750 F9000
G1 X105.273 Y64.554 Z108.938 F9000
G1 X108.143 Y63.277 Z109.125 F9000
G1 X111.094 Y62.202 Z109.312 F9000
G1 X114.114 Y61.337 Z109.500 F9000
G1 X117.186 Y60.684 Z109.688 F9000
G1 X120.296 Y60.247 Z109.875 F9000
G1 X123.430 Y60.027 Z110.062 F9000
G1 X126.570 Z110.250 F9000
G1 X129.704 Y60.247 Z110.438 F9000
G1 X132.814 Y60.684 Z110.625 F9000
G1 X135.886 Y61.337 Z110.812 F9000
G1 X138.906 Y62.202 Z111.000 F9000
G1 X141.857 Y63.277 Z111.188 F9000
G1 X144.727 Y64.554 Z111.375 F9000
G1 X147.500 Y66.029 Z111.562 F9000
G1 X150.164 Y67.693 Z111.750 F9000
G1 X152.705 Y69.540 Z111.938 F9000
G1 X155.111 Y71.558 Z112.125 F9000
G1 X157.370 Y73.740 Z112.313 F9000
G1 X159.472 Y76.075 Z112.500 F9000
G1 X161.406 Y78.550 Z112.688 F9000
G1 X163.162 Y81.154 Z112.875 F9000
G1 X164.733 Y83.874 Z113.062 F9000
G1 X166.110 Y86.697 Z113.250 F9000
G1 X167.286 Y89.609 Z113.438 F9000
G1 X168.257 Y92.596 Z113.625 F9000
G1 X169.017 Y95.644 Z113.812 F9000
G1 X169.562 Y98.737 Z114.000 F9000
G1 X169.890 Y101.861 Z114.188 F9000
G1 X170.000 Y105.000 Z114.375 F9000
G1 X169.890 Y108.139 Z114.562 F9000
G1 X169.562 Y111.263 Z114.750 F9000
G1 X169.017 Y114.356 Z114.938 F9000
G1 X168.257 Y117.404 Z115.125 F9000
G1 X167.286 Y120.391 Z115.312 F9000
G1 X166.110 Y123.303 Z115.500 F9000
G1 X164.733 Y126.126 Z115.688 F9000
G1 X163.162 Y128.846 Z115.875 F9000
G1 X161.406 Y131.450 Z116.062 F9000
G1 X159.472 Y133.925 Z116.250 F9000
G1 X157.370 Y136.260 Z116.437 F9000
G1 X155.111 Y138.442 Z116.625 F9000
G1 X152.705 Y140.460 Z116.812 F9000
G1 X150.164 Y142.307 Z117.000 F9000
G1 X147.500 Y143.971 Z117.188 F9000
G1 X144.727 Y145.446 Z117.375 F9000
G1 X141.857 Y146.723 Z117.562 F9000
G1 X138.906 Y147.798 Z117.750 F9000
G1 X135.886 Y148.663 Z117.938 F9000
G1 X132.814 Y149.316 Z118.125 F9000
G1 X129.704 Y149.753 Z118.312 F9000
G1 X126.570 Y149.973 Z118.500 F9000
G1 X123.430 Z118.688 F9000
G1 X120.296 Y149.753 Z118.875 F9000
G1 X117.186 Y149.316 Z119.062 F9000
G1 X114.114 Y148.663 Z119.250 F9000
G1 X111.094 Y147.798 Z119.438 F9000
G1 X108.143 Y146.723 Z119.625 F9000
G1 X105.273 Y145.446 Z119.812 F9000
G1 X102.500 Y143.971 Z120.000 F9000
G1 X99.836 Y142.307 Z120.188 F9000
G1 X97.295 Y140.460 Z120.375 F9000
G1 X94.889 Y138.442 Z120.562 F9000
G1 X92.630 Y136.260 Z120.750 F9000
G1 X90.528 Y133.925 Z120.938 F9000
G1 X88.594 Y131.450 Z121.125 F9000
G1 X86.838 Y128.846 Z121.312 F9000
G1 X85.267 Y126.126 Z121.500 F9000
G1 X83.890 Y123.303 Z121.688 F9000
G1 X82.714 Y120.391 Z121.875 F9000
G1 X81.743 Y117.404 Z122.062 F9000
G1 X80.983 Y114.356 Z122.250 F9000
G1 X80.438 Y111.263 Z122.438 F9000
G1 X80.110 Y108.139 Z122.625 F9000
G1 X80.000 Y105.000 Z122.812 F9000
G1 X80.110 Y101.861 Z123.000 F9000
G1 X80.438 Y98.737 Z123.188 F9000
G1 X80.983 Y95.644 Z123.375 F9000
G1 X81.743 Y92.596 Z123.562 F9000
G1 X82.714 Y89.609 Z123.750 F9000
G1 X83.890 Y86.697 Z123.938 F9000
G1 X85.267 Y83.874 Z124.125 F9000
G1 X86.838 Y81.154 Z124.312 F9000
G1 X88.594 Y78.550 Z124.500 F9000
G1 X90.528 Y76.075 Z124.688 F9000
G1 X92.630 Y73.740 Z124.875 F9000
G1 X94.889 Y71.558 Z125.062 F9000
G1 X97.295 Y69.540 Z125.250 F9000
G1 X99.836 Y67.693 Z125.438 F9000
G1 X102.500 Y66.029 Z125.625 F9000
G1 X105.273 Y64.554 Z125.812 F9000
G1 X108.143 Y63.277 Z126.000 F9000
G1 X111.094 Y62.202 Z126.188 F9000
G1 X114.114 Y61.337 Z126.375 F9000
G1 X117.186 Y60.684 Z126.562 F9000
G1 X120.296 Y60.247 Z126.750 F9000
G1 X123.430 Y60.027 Z126.938 F9000
G1 X126.570 Z127.125 F9000
G1 X129.704 Y60.247 Z127.312 F9000
G1 X132.814 Y60.684 Z127.500 F9000
G1 X135.886 Y61.337 Z127.688 F9000
G1 X138.906 Y62.202 Z127.875 F9000
G1 X141.857 Y63.277 Z128.062 F9000
G1 X144.727 Y64.554 Z128.250 F9000
G1 X147.500 Y66.029 Z128.438 F9000
G1 X150.164 Y67.693 Z128.625 F9000
G1 X152.705 Y69.540 Z128.812 F9000
G1 X155.111 Y71.558 Z129.000 F9000
G1 X157.370 Y73.740 Z129.188 F9000
G1 X159.472 Y76.075 Z129.375 F9000
G1 X161.406 Y78.550 Z129.562 F9000
G1 X163.162 Y81.154 Z129.750 F9000
G1 X164.733 Y83.874 Z129.938 F9000
G1 X166.110 Y86.697 Z130.125 F9000
G1 X167.286 Y89.609 Z130.312 F9000
G1 X168.257 Y92.596 Z130.500 F9000
G1 X169.017 Y95.644 Z130.688 F9000
G1 X169.562 Y98.737 Z130.875 F9000
G1 X169.890 Y101.861 Z131.062 F9000
G1 X170.000 Y105.000 Z131.250 F9000
G1 X169.890 Y108.139 Z131.438 F9000
G1 X169.562 Y111.263 Z131.625 F9000
G1 X169.017 Y114.356 Z131.812 F9000
G1 X168.257 Y117.404 Z132.000 F9000
G1 X167.286 Y120.391 Z132.188 F9000
G1 X166.110 Y123.303 Z132.375 F9000
G1 X164.733 Y126.126 Z132.562 F9000
G1 X163.162 Y128.846 Z132.750 F9000
G1 X161.406 Y131.450 Z132.938 F9000
G1 X159.472 Y133.925 Z133.125 F9000
G1 X157.370 Y136.260 Z133.312 F9000
G1 X155.111 Y138.442 Z133.500 F9000
G1 X152.705 Y140.460 Z133.688 F9000
G1 X150.164 Y142.307 Z133.875 F9000
G1 X147.500 Y143.971 Z134.062 F9000
G1 X144.727 Y145.446 Z134.250 F9000
G1 X141.857 Y146.723 Z134.438 F9000
G1 X138.906 Y147.798 Z134.625 F9000
G1 X135.886 Y148.663 Z134.812 F9000
G1 X132.814 Y149.316 Z135.000 F9000
G1 X129.704 Y149.753 Z135.188 F9000
G1 X126.570 Y149.973 Z135.375 F9000
G1 X123.430 Z135.562 F9000
G1 X120.296 Y149.753 Z135.750 F9000
G1 X117.186 Y149.316 Z135.938 F9000
G1 X114.114 Y148.663 Z136.125 F9000
G1 X111.094 Y147.798 Z136.312 F9000
G1 X108.143 Y146.723 Z136.500 F9000
G1 X105.273 Y145.446 Z136.688 F9000
G1 X102.500 Y143.971 Z136.875 F9000
G1 X99.836 Y142.307 Z137.062 F9000
G1 X97.295 Y140.460 Z137.250 F9000
G1 X94.889 Y138.442 Z137.438 F9000
G1 X92.630 Y136.260 Z137.625 F9000
G1 X90.528 Y133.925 Z137.812 F9000
G1 X88.594 Y131.450 Z138.000 F9000
G1 X86.838 Y128.846 Z138.188 F9000
G1 X85.267 Y126.126 Z138.375 F9000
G1 X83.890 Y123.303 Z138.562 F9000
G1 X82.714 Y120.391 Z138.750 F9000
G1 X81.743 Y117.404 Z138.938 F9000
G1 X80.983 Y114.356 Z139.125 F9000
G1 X80.438 Y111.263 Z139.312 F9000
G1 X80.110 Y108.139 Z139.500 F9000
G1 X80.000 Y105.000 Z139.688 F9000
G1 X80.110 Y101.861 Z139.875 F9000
G1 X80.438 Y98.737 Z140.062 F9000
G1 X80.983 Y95.644 Z140.250 F9000
G1 X81.743 Y92.596 Z140.438 F9000
G1 X82.714 Y89.609 Z140.625 F9000
G1 X83.890 Y86.697 Z140.812 F9000
G1 X85.267 Y83.874 Z141.000 F9000
G1 X86.838 Y81.154 Z141.188 F9000
G1 X88.594 Y78.550 Z141.375 F9000
G1 X90.528 Y76.075 Z141.562 F9000
G1 X92.630 Y73.740 Z141.750 F9000
G1 X94.889 Y71.558 Z141.938 F9000
G1 X97.295 Y69.540 Z142.125 F9000
G1 X99.836 Y67.693 Z142.312 F9000
G1 X102.500 Y66.029 Z142.500 F9000
G1 X105.273 Y64.554 Z142.688 F9000
G1 X108.143 Y63.277 Z142.875 F9000
G1 X111.094 Y62.202 Z143.062 F9000
G1 X114.114 Y61.337 Z143.250 F9000
G1 X117.186 Y60.684 Z143.438 F9000
G1 X120.296 Y60.247 Z143.625 F9000
G1 X123.430 Y60.027 Z143.812 F9000
G1 X126.570 Z144.000 F9000
G1 X129.704 Y60.247 Z144.188 F9000
G1 X132.814 Y60.684 Z144.375 F9000
G1 X135.886 Y61.337 Z144.562 F9000
G1 X138.906 Y62.202 Z144.750 F9000
G1 X141.857 Y63.277 Z144.938 F9000
G1 X144.727 Y64.554 Z145.125 F9000
G1 X147.500 Y66.029 Z145.312 F9000
G1 X150.164 Y67.693 Z145.500 F9000
G1 X152.705 Y69.540 Z145.688 F9000
G1 X155.111 Y71.558 Z145.875 F9000
G1 X157.370 Y73.740 Z146.062 F9000
G1 X159.472 Y76.075 Z146.250 F9000
G1 X161.406 Y78.550 Z146.438 F9000
G1 X163.162 Y81.154 Z146.625 F9000
G1 X164.733 Y83.874 Z146.812 F9000
G1 X166.110 Y86.697 Z147.000 F9000
G1 X167.286 Y89.609 Z147.188 F9000
G1 X168.257 Y92.596 Z147.375 F9000
G1 X169.017 Y95.644 Z147.562 F9000
G1 X169.562 Y98.737 Z147.750 F9000
G1 X169.890 Y101.861 Z147.938 F9000
G1 X170.000 Y105.000 Z148.125 F9000
G1 X169.890 Y108.139 Z148.312 F9000
G1 X169.562 Y111.263 Z148.500 F9000
G1 X169.017 Y114.356 Z148.688 F9000
G1 X168.257 Y117.404 Z148.875 F9000
G1 X167.286 Y120.391 Z149.062 F9000
G1 X166.110 Y123.303 Z149.250 F9000
G1 X164.733 Y126.126 Z149.438 F9000
G1 X163.162 Y128.846 Z149.625 F9000
G1 X161.406 Y131.450 Z149.812 F9000
G1 X159.472 Y133.925 Z150.000 F9000
G1 X157.370 Y136.260 Z150.188 F9000
G1 X155.111 Y138.442 Z150.375 F9000
G1 X152.705 Y140.460 Z150.562 F9000
G1 X150.164 Y142.307 Z150.750 F9000
G1 X147.500 Y143.971 Z150.938 F9000
G1 X144.727 Y145.446 Z151.125 F9000
G1 X141.857 Y146.723 Z151.312 F9000
G1 X138.906 Y147.798 Z151.500 F9000
G1 X135.886 Y148.663 Z151.688 F9000
G1 X132.814 Y149.316 Z151.875 F9000
G1 X129.704 Y149.753 Z152.062 F9000
G1 X126.570 Y149.973 Z152.250 F9000
G1 X123.430 Z152.438 F9000
G1 X120.296 Y149.753 Z152.625 F9000
G1 X117.186 Y149.316 Z152.812 F9000
G1 X114.114 Y148.663 Z153.000 F9000
G1 X111.094 Y147.798 Z153.188 F9000
G1 X108.143 Y146.723 Z153.375 F9000
G1 X105.273 Y145.446 Z153.562 F9000
G1 X102.500 Y143.971 Z153.750 F9000
G1 X99.836 Y142.307 Z153.938 F9000
G1 X97.295 Y140.460 Z154.125 F9000
G1 X94.889 Y138.442 Z154.312 F9000
G1 X92.630 Y136.260 Z154.500 F9000
G1 X90.528 Y133.925 Z154.688 F9000
G1 X88.594 Y131.450 Z154.875 F9000
G1 X86.838 Y128.846 Z155.062 F9000
G1 X85.267 Y126.126 Z155.250 F9000
G1 X83.890 Y123.303 Z155.438 F9000
G1 X82.714 Y120.391 Z155.625 F9000
G1 X81.743 Y117.404 Z155.812 F9000
G1 X80.983 Y114.356 Z156.000 F9000
G1 X80.438 Y111.263 Z156.188 F9000
G1 X80.110 Y108.139 Z156.375 F9000
G1 X80.000 Y105.000 Z156.562 F9000
G1 X80.110 Y101.861 Z156.750 F9000
G1 X80.438 Y98.737 Z156.938 F9000
G1 X80.983 Y95.644 Z157.125 F9000
G1 X81.743 Y92.596 Z157.312 F9000
G1 X82.714 Y89.609 Z157.500 F9000
G1 X83.890 Y86.697 Z157.688 F9000
G1 X85.267 Y83.874 Z157.875 F9000
G1 X86.838 Y81.154 Z158.062 F9000
G1 X88.594 Y78.550 Z158.250 F9000
G1 X90.528 Y76.075 Z158.438 F9000
G1 X92.630 Y73.740 Z158.625 F9000
G1 X94.889 Y71.558 Z158.812 F9000
G1 X97.295 Y69.540 Z159.000 F9000
G1 X99.836 Y67.693 Z159.188 F9000
G1 X102.500 Y66.029 Z159.375 F9000
G1 X105.273 Y64.554 Z159.562 F9000
G1 X108.143 Y63.277 Z159.750 F9000
G1 X111.094 Y62.202 Z159.938 F9000
G1 X114.114 Y61.337 Z160.125 F9000
G1 X117.186 Y60.684 Z160.312 F9000
G1 X120.296 Y60.247 Z160.500 F9000
G1 X123.430 Y60.027 Z160.688 F9000
G1 X126.570 Z160.875 F9000
G1 X129.704 Y60.247 Z161.062 F9000
G1 X132.814 Y60.684 Z161.250 F9000
G1 X135.886 Y61.337 Z161.438 F9000
G1 X138.906 Y62.202 Z161.625 F9000
G1 X141.857 Y63.277 Z161.812 F9000
G1 X144.727 Y64.554 Z162.000 F9000
G1 X147.500 Y66.029 Z162.188 F9000
G1 X150.164 Y67.693 Z162.375 F9000
G1 X152.705 Y69.540 Z162.562 F9000
G1 X155.111 Y71.558 Z162.750 F9000
G1 X157.370 Y73.740 Z162.938 F9000
G1 X159.472 Y76.075 Z163.125 F9000
G1 X161.406 Y78.550 Z163.312 F9000
G1 X163.162 Y81.154 Z163.500 F9000
G1 X164.733 Y83.874 Z163.688 F9000
G1 X166.110 Y86.697 Z163.875 F9000
G1 X167.286 Y89.609 Z164.062 F9000
G1 X168.257 Y92.596 Z164.250 F9000
G1 X169.017 Y95.644 Z164.438 F9000
G1 X169.562 Y98.737 Z164.625 F9000
G1 X169.890 Y101.861 Z164.812 F9000
G1 X170.000 Y105.000 Z165.000 F9000
G1 X169.890 Y108.139 Z164.812 F9000
G1 X169.562 Y111.263 Z164.625 F9000
G1 X169.017 Y114.356 Z164.438 F9000
G1 X168.257 Y117.404 Z164.250 F9000
G1 X167.286 Y120.391 Z164.062 F9000
G1 X166.110 Y123.303 Z163.875 F9000
G1 X164.733 Y126.126 Z163.688 F9000
G1 X163.162 Y128.846 Z163.500 F9000
G1 X161.406 Y131.450 Z163.312 F9000
G1 X159.472 Y133.925 Z163.125 F9000
G1 X157.370 Y136.260 Z162.938 F9000
G1 X155.111 Y138.442 Z162.750 F9000
G1 X152.705 Y140.460 Z162.562 F9000
G1 X150.164 Y142.307 Z162.375 F9000
G1 X147.500 Y143.971 Z162.188 F9000
G1 X144.727 Y145.446 Z162.000 F9000
G1 X141.857 Y146.723 Z161.812 F9000
G1 X138.906 Y147.798 Z161.625 F9000
G1 X135.886 Y148.663 Z161.438 F9000
G1 X132.814 Y149.316 Z161.250 F9000
G1 X129.704 Y149.753 Z161.062 F9000
G1 X126.570 Y149.973 Z160.875 F9000
G1 X123.430 Z160.688 F9000
G1 X120.296 Y149.753 Z160.500 F9000
G1 X117.186 Y149.316 Z160.312 F9000
G1 X114.114 Y148.663 Z160.125 F9000
G1 X111.094 Y147.798 Z159.938 F9000
G1 X108.143 Y146.723 Z159.750 F9000
G1 X105.273 Y145.446 Z159.562 F9000
G1 X102.500 Y143.971 Z159.375 F9000
G1 X99.836 Y142.307 Z159.188 F9000
G1 X97.295 Y140.460 Z159.000 F9000
G1 X94.889 Y138.442 Z158.812 F9000
G1 X92.630 Y136.260 Z158.625 F9000
G1 X90.528 Y133.925 Z158.438 F9000
G1 X88.594 Y131.450 Z158.250 F9000
G1 X86.838 Y128.846 Z158.062 F9000
G1 X85.267 Y126.126 Z157.875 F9000
G1 X83.890 Y123.303 Z157.688 F9000
G1 X82.714 Y120.391 Z157.500 F9000
G1 X81.743 Y117.404 Z157.312 F9000
G1 X80.983 Y114.356 Z157.125 F9000
G1 X80.438 Y111.263 Z156.938 F9000
G1 X80.110 Y108.139 Z156.750 F9000
G1 X80.000 Y105.000 Z156.562 F9000
G1 X80.110 Y101.861 Z156.375 F9000
G1 X80.438 Y98.737 Z156.188 F9000
G1 X80.983 Y95.644 Z156.000 F9000
G1 X81.743 Y92.596 Z155.812 F9000
G1 X82.714 Y89.609 Z155.625 F9000
G1 X83.890 Y86.697 Z155.438 F9000
G1 X85.267 Y83.874 Z155.250 F9000
G1 X86.838 Y81.154 Z155.062 F9000
G1 X88.594 Y78.550 Z154.875 F9000
G1 X90.528 Y76.075 Z154.688 F9000
G1 X92.630 Y73.740 Z154.500 F9000
G1 X94.889 Y71.558 Z154.312 F9000
G1 X97.295 Y69.540 Z154.125 F9000
G1 X99.836 Y67.693 Z153.938 F9000
G1 X102.500 Y66.029 Z153.750 F9000
G1 X105.273 Y64.554 Z153.562 F9000
G1 X108.143 Y63.277 Z153.375 F9000
G1 X111.094 Y62.202 Z153.188 F9000
G1 X114.114 Y61.337 Z153.000 F9000
G1 X117.186 Y60.684 Z152.812 F9000
G1 X120.296 Y60.247 Z152.625 F9000
G1 X123.430 Y60.027 Z152.438 F9000
G1 X126.570 Z152.250 F9000
G1 X129.704 Y60.247 Z152.062 F9000
G1 X132.814 Y60.684 Z151.875 F9000
G1 X135.886 Y61.337 Z151.688 F9000
G1 X138.906 Y62.202 Z151.500 F9000
G1 X141.857 Y63.277 Z151.312 F9000
G1 X144.727 Y64.554 Z151.125 F9000
G1 X147.500 Y66.029 Z150.938 F9000
G1 X150.164 Y67.693 Z150.750 F9000
G1 X152.705 Y69.540 Z150.562 F9000
G1 X155.111 Y71.558 Z150.375 F9000
G1 X157.370 Y73.740 Z150.188 F9000
G1 X159.472 Y76.075 Z150.000 F9000
G1 X161.406 Y78.550 Z149.812 F9000
G1 X163.162 Y81.154 Z149.625 F9000
G1 X164.733 Y83.874 Z149.438 F9000
G1 X166.110 Y86.697 Z149.250 F9000
G1 X167.286 Y89.609 Z149.062 F9000
G1 X168.257 Y92.596 Z148.875 F9000
G1 X169.017 Y95.644 Z148.688 F9000
G1 X169.562 Y98.737 Z148.500 F9000
G1 X169.890 Y101.861 Z148.312 F9000
G1 X170.000 Y105.000 Z148.125 F9000
G1 X169.890 Y108.139 Z147.938 F9000
G1 X169.562 Y111.263 Z147.750 F9000
G1 X169.017 Y114.356 Z147.562 F9000
G1 X168.257 Y117.404 Z147.375 F9000
G1 X167.286 Y120.391 Z147.188 F9000
G1 X166.110 Y123.303 Z147.000 F9000
G1 X164.733 Y126.126 Z146.812 F9000
G1 X163.162 Y128.846 Z146.625 F9000
G1 X161.406 Y131.450 Z146.438 F9000
G1 X159.472 Y133.925 Z146.250 F9000
G1 X157.370 Y136.260 Z146.062 F9000
G1 X155.111 Y138.442 Z145.875 F9000
G1 X152.705 Y140.460 Z145.688 F9000
G1 X150.164 Y142.307 Z145.500 F9000
G1 X147.500 Y143.971 Z145.312 F9000
G1 X144.727 Y145.446 Z145.125 F9000
G1 X141.857 Y146.723 Z144.938 F9000
G1 X138.906 Y147.798 Z144.750 F9000
G1 X135.886 Y148.663 Z144.562 F9000
G1 X132.814 Y149.316 Z144.375 F9000
G1 X129.704 Y149.753 Z144.188 F9000
G1 X126.570 Y149.973 Z144.000 F9000
G1 X123.430 Z143.812 F9000
G1 X120.296 Y149.753 Z143.625 F9000
G1 X117.186 Y149.316 Z143.438 F9000
G1 X114.114 Y148.663 Z143.250 F9000
G1 X111.094 Y147.798 Z143.062 F9000
G1 X108.143 Y146.723 Z142.875 F9000
G1 X105.273 Y145.446 Z142.688 F9000
G1 X102.500 Y143.971 Z142.500 F9000
G1 X99.836 Y142.307 Z142.312 F9000
G1 X97.295 Y140.460 Z142.125 F9000
G1 X94.889 Y138.442 Z141.938 F9000
G1 X92.630 Y136.260 Z141.750 F9000
G1 X90.528 Y133.925 Z141.562 F9000
G1 X88.594 Y131.450 Z141.375 F9000
G1 X86.838 Y128.846 Z141.188 F9000
G1 X85.267 Y126.126 Z141.000 F9000
G1 X83.890 Y123.303 Z140.812 F9000
G1 X82.714 Y120.391 Z140.625 F9000
G1 X81.743 Y117.404 Z140.438 F9000
G1 X80.983 Y114.356 Z140.250 F9000
G1 X80.438 Y111.263 Z140.062 F9000
G1 X80.110 Y108.139 Z139.875 F9000
G1 X80.000 Y105.000 Z139.688 F9000
G1 X80.110 Y101.861 Z139.500 F9000
G1 X80.438 Y98.737 Z139.312 F9000
G1 X80.983 Y95.644 Z139.125 F9000
G1 X81.743 Y92.596 Z138.938 F9000
G1 X82.714 Y89.609 Z138.750 F9000
G1 X83.890 Y86.697 Z138.562 F9000
G1 X85.267 Y83.874 Z138.375 F9000
G1 X86.838 Y81.154 Z138.188 F9000
G1 X88.594 Y78.550 Z138.000 F9000
G1 X90.528 Y76.075 Z137.812 F9000
G1 X92.630 Y73.740 Z137.625 F9000
G1 X94.889 Y71.558 Z137.438 F9000
G1 X97.295 Y69.540 Z137.250 F9000
G1 X99.836 Y67.693 Z137.062 F9000
G1 X102.500 Y66.029 Z136.875 F9000
G1 X105.273 Y64.554 Z136.688 F9000
G1 X108.143 Y63.277 Z136.500 F9000
G1 X111.094 Y62.202 Z136.312 F9000
G1 X114.114 Y61.337 Z136.125 F9000
G1 X117.186 Y60.684 Z135.938 F9000
G1 X120.296 Y60.247 Z135.750 F9000
G1 X123.430 Y60.027 Z135.562 F9000
G1 X126.570 Z135.375 F9000
G1 X129.704 Y60.247 Z135.188 F9000
G1 X132.814 Y60.684 Z135.000 F9000
G1 X135.886 Y61.337 Z134.812 F9000
G1 X138.906 Y62.202 Z134.625 F9000
G1 X141.857 Y63.277 Z134.438 F9000
G1 X144.727 Y64.554 Z134.250 F9000
G1 X147.500 Y66.029 Z134.062 F9000
G1 X150.164 Y67.693 Z133.875 F9000
G1 X152.705 Y69.540 Z133.688 F9000
G1 X155.111 Y71.558 Z133.500 F9000
G1 X157.370 Y73.740 Z133.312 F9000
G1 X159.472 Y76.075 Z133.125 F9000
G1 X161.406 Y78.550 Z132.938 F9000
G1 X163.162 Y81.154 Z132.750 F9000
G1 X164.733 Y83.874 Z132.562 F9000
G1 X166.110 Y86.697 Z132.375 F9000
G1 X167.286 Y89.609 Z132.188 F9000
G1 X168.257 Y92.596 Z132.000 F9000
G1 X169.017 Y95.644 Z131.812 F9000
G1 X169.562 Y98.737 Z131.625 F9000
G1 X169.890 Y101.861 Z131.438 F9000
G1 X170.000 Y105.000 Z131.250 F9000
G1 X169.890 Y108.139 Z131.062 F9000
G1 X169.562 Y111.263 Z130.875 F9000
G1 X169.017 Y114.356 Z130.688 F9000
G1 X168.257 Y117.404 Z130.500 F9000
G1 X167.286 Y120.391 Z130.312 F9000
G1 X166.110 Y123.303 Z130.125 F9000
G1 X164.733 Y126.126 Z129.938 F9000
G1 X163.162 Y128.846 Z129.750 F9000
G1 X161.406 Y131.450 Z129.562 F9000
G1 X159.472 Y133.925 Z129.375 F9000
G1 X157.370 Y136.260 Z129.188 F9000
G1 X155.111 Y138.442 Z129.000 F9000
G1 X152.705 Y140.460 Z128.812 F9000
G1 X150.164 Y142.307 Z128.625 F9000
G1 X147.500 Y143.971 Z128.438 F9000
G1 X144.727 Y145.446 Z128.250 F9000
G1 X141.857 Y146.723 Z128.062 F9000
G1 X138.906 Y147.798 Z127.875 F9000
G1 X135.886 Y148.663 Z127.688 F9000
G1 X132.814 Y149.316 Z127.500 F9000
G1 X129.704 Y149.753 Z127.312 F9000
G1 X126.570 Y149.973 Z127.125 F9000
G1 X123.430 Z126.938 F9000
G1 X120.296 Y149.753 Z126.750 F9000
G1 X117.186 Y149.316 Z126.562 F9000
G1 X114.114 Y148.663 Z126.375 F9000
G1 X111.094 Y147.798 Z126.188 F9000
G1 X108.143 Y146.723 Z126.000 F9000
G1 X105.273 Y145.446 Z125.812 F9000
G1 X102.500 Y143.971 Z125.625 F9000
G1 X99.836 Y142.307 Z125.437 F9000
G1 X97.295 Y140.460 Z125.250 F9000
G1 X94.889 Y138.442 Z125.062 F9000
G1 X92.630 Y136.260 Z124.875 F9000
G1 X90.528 Y133.925 Z124.688 F9000
G1 X88.594 Y131.450 Z124.500 F9000
G1 X86.838 Y128.846 Z124.312 F9000
G1 X85.267 Y126.126 Z124.125 F9000
G1 X83.890 Y123.303 Z123.938 F9000
G1 X82.714 Y120.391 Z123.750 F9000
G1 X81.743 Y117.404 Z123.562 F9000
G1 X80.983 Y114.356 Z123.375 F9000
G1 X80.438 Y111.263 Z123.188 F9000
G1 X80.110 Y108.139 Z123.000 F9000
G1 X80.000 Y105.000 Z122.812 F9000
G1 X80.110 Y101.861 Z122.625 F9000
G1 X80.438 Y98.737 Z122.438 F9000
G1 X80.983 Y95.644 Z122.250 F9000
G1 X81.743 Y92.596 Z122.062 F9000
G1 X82.714 Y89.609 Z121.875 F9000
G1 X83.890 Y86.697 Z121.688 F9000
G1 X85.267 Y83.874 Z121.500 F9000
G1 X86.838 Y81.154 Z121.312 F9000
G1 X88.594 Y78.550 Z121.125 F9000
G1 X90.528 Y76.075 Z120.938 F9000
G1 X92.630 Y73.740 Z120.750 F9000
G1 X94.889 Y71.558 Z120.563 F9000
G1 X97.295 Y69.540 Z120.375 F9000
G1 X99.836 Y67.693 Z120.188 F9000
G1 X102.500 Y66.029 Z120.000 F9000
G1 X105.273 Y64.554 Z119.813 F9000
G1 X108.143 Y63.277 Z119.625 F9000
G1 X111.094 Y62.202 Z119.438 F9000
G1 X114.114 Y61.337 Z119.250 F9000
G1 X117.186 Y60.684 Z119.062 F9000
G1 X120.296 Y60.247 Z118.875 F9000
G1 X123.430 Y60.027 Z118.688 F9000
G1 X126.570 Z118.500 F9000
G1 X129.704 Y60.247 Z118.312 F9000
G1 X132.814 Y60.684 Z118.125 F9000
G1 X135.886 Y61.337 Z117.938 F9000
G1 X138.906 Y62.202 Z117.750 F9000
G1 X141.857 Y63.277 Z117.562 F9000
G1 X144.727 Y64.554 Z117.375 F9000
G1 X147.500 Y66.029 Z117.187 F9000
G1 X150.164 Y67.693 Z117.000 F9000
G1 X152.705 Y69.540 Z116.812 F9000
G1 X155.111 Y71.558 Z116.625 F9000
G1 X157.370 Y73.740 Z116.437 F9000
G1 X159.472 Y76.075 Z116.250 F9000
G1 X161.406 Y78.550 Z116.062 F9000
G1 X163.162 Y81.154 Z115.875 F9000
G1 X164.733 Y83.874 Z115.688 F9000
G1 X166.110 Y86.697 Z115.500 F9000
G1 X167.286 Y89.609 Z115.312 F9000
G1 X168.257 Y92.596 Z115.125 F9000
G1 X169.017 Y95.644 Z114.938 F9000
G1 X169.562 Y98.737 Z114.750 F9000
G1 X169.890 Y101.861 Z114.562 F9000
G1 X170.000 Y105.000 Z114.375 F9000
G1 X169.890 Y108.139 Z114.188 F9000
G1 X169.562 Y111.263 Z114.000 F9000
G1 X169.017 Y114.356 Z113.812 F9000
G1 X168.257 Y117.404 Z113.625 F9000
G1 X167.286 Y120.391 Z113.438 F9000
G1 X166.110 Y123.303 Z113.250 F9000
G1 X164.733 Y126.126 Z113.062 F9000
G1 X163.162 Y128.846 Z112.875 F9000
G1 X161.406 Y131.450 Z112.688 F9000
G1 X159.472 Y133.925 Z112.500 F9000
G1 X157.370 Y136.260 Z112.313 F9000
G1 X155.111 Y138.442 Z112.125 F9000
G1 X152.705 Y140.460 Z111.938 F9000
G1 X150.164 Y142.307 Z111.750 F9000
G1 X147.500 Y143.971 Z111.563 F9000
G1 X144.727 Y145.446 Z111.375 F9000
G1 X141.857 Y146.723 Z111.188 F9000
G1 X138.906 Y147.798 Z111.000 F9000
G1 X135.886 Y148.663 Z110.812 F9000
G1 X132.814 Y149.316 Z110.625 F9000
G1 X129.704 Y149.753 Z110.438 F9000
G1 X126.570 Y149.973 Z110.250 F9000
G1 X123.430 Z110.062 F9000
G1 X120.296 Y149.753 Z109.875 F9000
G1 X117.186 Y149.316 Z109.688 F9000
G1 X114.114 Y148.663 Z109.500 F9000
G1 X111.094 Y147.798 Z109.312 F9000
G1 X108.143 Y146.723 Z109.125 F9000
G1 X105.273 Y145.446 Z108.937 F9000
G1 X102.500 Y143.971 Z108.750 F9000
G1 X99.836 Y142.307 Z108.562 F9000
G1 X97.295 Y140.460 Z108.375 F9000
G1 X94.889 Y138.442 Z108.187 F9000
G1 X92.630 Y136.260 Z108.000 F9000
G1 X90.528 Y133.925 Z107.812 F9000
G1 X88.594 Y131.450 Z107.625 F9000
G1 X86.838 Y128.846 Z107.438 F9000
G1 X85.267 Y126.126 Z107.250 F9000
G1 X83.890 Y123.303 Z107.062 F9000
G1 X82.714 Y120.391 Z106.875 F9000
G1 X81.743 Y117.404 Z106.688 F9000
G1 X80.983 Y114.356 Z106.500 F9000
G1 X80.438 Y111.263 Z106.312 F9000
G1 X80.110 Y108.139 Z106.125 F9000
G1 X80.000 Y105.000 Z105.938 F9000
G1 X80.110 Y101.861 Z105.750 F9000
G1 X80.438 Y98.737 Z105.562 F9000
G1 X80.983 Y95.644 Z105.375 F9000
G1 X81.743 Y92.596 Z105.188 F9000
G1 X82.714 Y89.609 Z105.000 F9000
G1 X83.890 Y86.697 Z104.812 F9000
G1 X85.267 Y83.874 Z104.625 F9000
G1 X86.838 Y81.154 Z104.438 F9000
G1 X88.594 Y78.550 Z104.250 F9000
G1 X90.528 Y76.075 Z104.062 F9000
G1 X92.630 Y73.740 Z103.875 F9000
G1 X94.889 Y71.558 Z103.688 F9000
G1 X97.295 Y69.540 Z103.500 F9000
G1 X99.836 Y67.693 Z103.313 F9000
G1 X102.500 Y66.029 Z103.125 F9000
G1 X105.273 Y64.554 Z102.938 F9000
G1 X108.143 Y63.277 Z102.750 F9000
G1 X111.094 Y62.202 Z102.562 F9000
G1 X114.114 Y61.337 Z102.375 F9000
G1 X117.186 Y60.684 Z102.188 F9000
G1 X120.296 Y60.247 Z102.000 F9000
G1 X123.430 Y60.027 Z101.812 F9000
G1 X126.570 Z101.625 F9000
G1 X129.704 Y60.247 Z101.438 F9000
G1 X132.814 Y60.684 Z101.250 F9000
G1 X135.886 Y61.337 Z101.062 F9000
G1 X138.906 Y62.202 Z100.875 F9000
G1 X141.857 Y63.277 Z100.688 F9000
G1 X144.727 Y64.554 Z100.500 F9000
G1 X147.500 Y66.029 Z100.312 F9000
G1 X150.164 Y67.693 Z100.125 F9000
G1 X152.705 Y69.540 Z99.937 F9000
G1 X155.111 Y71.558 Z99.750 F9000
G1 X157.370 Y73.740 Z99.562 F9000
G1 X159.472 Y76.075 Z99.375 F9000
G1 X161.406 Y78.550 Z99.188 F9000
G1 X163.162 Y81.154 Z99.000 F9000
G1 X164.733 Y83.874 Z98.812 F9000
G1 X166.110 Y86.697 Z98.625 F9000
G1 X167.286 Y89.609 Z98.438 F9000
G1 X168.257 Y92.596 Z98.250 F9000
G1 X169.017 Y95.644 Z98.062 F9000
G1 X169.562 Y98.737 Z97.875 F9000
G1 X169.890 Y101.861 Z97.688 F9000
G1 X170.000 Y105.000 Z97.500 F9000
G1 X169.890 Y108.139 Z97.312 F9000
G1 X169.562 Y111.263 Z97.125 F9000
G1 X169.017 Y114.356 Z96.938 F9000
G1 X168.257 Y117.404 Z96.750 F9000
G1 X167.286 Y120.391 Z96.562 F9000
G1 X166.110 Y123.303 Z96.375 F9000
G1 X164.733 Y126.126 Z96.188 F9000
G1 X163.162 Y128.846 Z96.000 F9000
G1 X161.406 Y131.450 Z95.812 F9000
G1 X159.472 Y133.925 Z95.625 F9000
G1 X157.370 Y136.260 Z95.438 F9000
G1 X155.111 Y138.442 Z95.250 F9000
G1 X152.705 Y140.460 Z95.062 F9000
G1 X150.164 Y142.307 Z94.875 F9000
G1 X147.500 Y143.971 Z94.688 F9000
G1 X144.727 Y145.446 Z94.500 F9000
G1 X141.857 Y146.723 Z94.312 F9000
G1 X138.906 Y147.798 Z94.125 F9000
G1 X135.886 Y148.663 Z93.938 F9000
G1 X132.814 Y149.316 Z93.750 F9000
G1 X129.704 Y149.753 Z93.562 F9000
G1 X126.570 Y149.973 Z93.375 F9000
G1 X123.430 Z93.188 F9000
G1 X120.296 Y149.753 Z93.000 F9000
G1 X117.186 Y149.316 Z92.812 F9000
G1 X114.114 Y148.663 Z92.625 F9000
G1 X111.094 Y147.798 Z92.438 F9000
G1 X108.143 Y146.723 Z92.250 F9000
G1 X105.273 Y145.446 Z92.062 F9000
G1 X102.500 Y143.971 Z91.875 F9000
G1 X99.836 Y142.307 Z91.688 F9000
G1 X97.295 Y140.460 Z91.500 F9000
G1 X94.889 Y138.442 Z91.312 F9000
G1 X92.630 Y136.260 Z91.125 F9000
G1 X90.528 Y133.925 Z90.938 F9000
G1 X88.594 Y131.450 Z90.750 F9000
G1 X86.838 Y128.846 Z90.562 F9000
G1 X85.267 Y126.126 Z90.375 F9000
G1 X83.890 Y123.303 Z90.188 F9000
G1 X82.714 Y120.391 Z90.000 F9000
G1 X81.743 Y117.404 Z89.812 F9000
G1 X80.983 Y114.356 Z89.625 F9000
G1 X80.438 Y111.263 Z89.438 F9000
G1 X80.110 Y108.139 Z89.250 F9000
G1 X80.000 Y105.000 Z89.062 F9000
G1 X80.110 Y101.861 Z88.875 F9000
G1 X80.438 Y98.737 Z88.688 F9000
G1 X80.983 Y95.644 Z88.500 F9000
G1 X81.743 Y92.596 Z88.312 F9000
G1 X82.714 Y89.609 Z88.125 F9000
G1 X83.890 Y86.697 Z87.938 F9000
G1 X85.267 Y83.874 Z87.750 F9000
G1 X86.838 Y81.154 Z87.562 F9000
G1 X88.594 Y78.550 Z87.375 F9000
G1 X90.528 Y76.075 Z87.188 F9000
G1 X92.630 Y73.740 Z87.000 F9000
G1 X94.889 Y71.558 Z86.812 F9000
G1 X97.295 Y69.540 Z86.625 F9000
G1 X99.836 Y67.693 Z86.438 F9000
G1 X102.500 Y66.029 Z86.250 F9000
G1 X105.273 Y64.554 Z86.062 F9000
G1 X108.143 Y63.277 Z85.875 F9000
G1 X111.094 Y62.202 Z85.688 F9000
G1 X114.114 Y61.337 Z85.500 F9000
G1 X117.186 Y60.684 Z85.312 F9000
G1 X120.296 Y60.247 Z85.125 F9000
G1 X123.430 Y60.027 Z84.938 F9000
G1 X126.570 Z84.750 F9000
G1 X129.704 Y60.247 Z84.562 F9000
G1 X132.814 Y60.684 Z84.375 F9000
G1 X135.886 Y61.337 Z84.188 F9000
G1 X138.906 Y62.202 Z84.000 F9000
G1 X141.857 Y63.277 Z83.812 F9000
G1 X144.727 Y64.554 Z83.625 F9000
G1 X147.500 Y66.029 Z83.438 F9000
G1 X150.164 Y67.693 Z83.250 F9000
G1 X152.705 Y69.540 Z83.062 F9000
G1 X155.111 Y71.558 Z82.875 F9000
G1 X157.370 Y73.740 Z82.688 F9000
G1 X159.472 Y76.075 Z82.500 F9000
G1 X161.406 Y78.550 Z82.312 F9000
G1 X163.162 Y81.154 Z82.125 F9000
G1 X164.733 Y83.874 Z81.938 F9000
G1 X166.110 Y86.697 Z81.750 F9000
G1 X167.286 Y89.609 Z81.562 F9000
G1 X168.257 Y92.596 Z81.375 F9000
G1 X169.017 Y95.644 Z81.188 F9000
G1 X169.562 Y98.737 Z81.000 F9000
G1 X169.890 Y101.861 Z80.812 F9000
G1 X170.000 Y105.000 Z80.625 F9000
G1 X169.890 Y108.139 Z80.438 F9000
G1 X169.562 Y111.263 Z80.250 F9000
G1 X169.017 Y114.356 Z80.062 F9000
G1 X168.257 Y117.404 Z79.875 F9000
G1 X167.286 Y120.391 Z79.688 F9000
G1 X166.110 Y123.303 Z79.500 F9000
G1 X164.733 Y126.126 Z79.312 F9000
G1 X163.162 Y128.846 Z79.125 F9000
G1 X161.406 Y131.450 Z78.938 F9000
G1 X159.472 Y133.925 Z78.750 F9000
G1 X157.370 Y136.260 Z78.562 F9000
G1 X155.111 Y138.442 Z78.375 F9000
G1 X152.705 Y140.460 Z78.188 F9000
G1 X150.164 Y142.307 Z78.000 F9000
G1 X147.500 Y143.971 Z77.812 F9000
G1 X144.727 Y145.446 Z77.625 F9000
G1 X141.857 Y146.723 Z77.438 F9000
G1 X138.906 Y147.798 Z77.250 F9000
G1 X135.886 Y148.663 Z77.062 F9000
G1 X132.814 Y149.316 Z76.875 F9000
G1 X129.704 Y149.753 Z76.688 F9000
G1 X126.570 Y149.973 Z76.500 F9000
G1 X123.430 Z76.312 F9000
G1 X120.296 Y149.753 Z76.125 F9000
G1 X117.186 Y149.316 Z75.938 F9000
G1 X114.114 Y148.663 Z75.750 F9000
G1 X111.094 Y147.798 Z75.562 F9000
G1 X108.143 Y146.723 Z75.375 F9000
G1 X105.273 Y145.446 Z75.188 F9000
G1 X102.500 Y143.971 Z75.000 F9000
G1 X99.836 Y142.307 Z74.812 F9000
G1 X97.295 Y140.460 Z74.625 F9000
G1 X94.889 Y138.442 Z74.438 F9000
G1 X92.630 Y136.260 Z74.250 F9000
G1 X90.528 Y133.925 Z74.062 F9000
G1 X88.594 Y131.450 Z73.875 F9000
G1 X86.838 Y128.846 Z73.688 F9000
G1 X85.267 Y126.126 Z73.500 F9000
G1 X83.890 Y123.303 Z73.312 F9000
G1 X82.714 Y120.391 Z73.125 F9000
G1 X81.743 Y117.404 Z72.938 F9000
G1 X80.983 Y114.356 Z72.750 F9000
G1 X80.438 Y111.263 Z72.562 F9000
G1 X80.110 Y108.139 Z72.375 F9000
G1 X80.000 Y105.000 Z72.188 F9000
G1 X80.110 Y101.861 Z72.000 F9000
G1 X80.438 Y98.737 Z71.812 F9000
G1 X80.983 Y95.644 Z71.625 F9000
G1 X81.743 Y92.596 Z71.438 F9000
G1 X82.714 Y89.609 Z71.250 F9000
G1 X83.890 Y86.697 Z71.062 F9000
G1 X85.267 Y83.874 Z70.875 F9000
G1 X86.838 Y81.154 Z70.688 F9000
G1 X88.594 Y78.550 Z70.500 F9000
G1 X90.528 Y76.075 Z70.312 F9000
G1 X92.630 Y73.740 Z70.125 F9000
G1 X94.889 Y71.558 Z69.938 F9000
G1 X97.295 Y69.540 Z69.750 F9000
G1 X99.836 Y67.693 Z69.562 F9000
G1 X102.500 Y66.029 Z69.375 F9000
G1 X105.273 Y64.554 Z69.188 F9000
G1 X108.143 Y63.277 Z69.000 F9000
G1 X111.094 Y62.202 Z68.812 F9000
G1 X114.114 Y61.337 Z68.625 F9000
G1 X117.186 Y60.684 Z68.438 F9000
G1 X120.296 Y60.247 Z68.250 F9000
G1 X123.430 Y60.027 Z68.062 F9000
G1 X126.570 Z67.875 F9000
G1 X129.704 Y60.247 Z67.688 F9000
G1 X132.814 Y60.684 Z67.500 F9000
G1 X135.886 Y61.337 Z67.312 F9000
G1 X138.906 Y62.202 Z67.125 F9000
G1 X141.857 Y63.277 Z66.938 F9000
G1 X144.727 Y64.554 Z66.750 F9000
G1 X147.500 Y66.029 Z66.562 F9000
G1 X150.164 Y67.693 Z66.375 F9000
G1 X152.705 Y69.540 Z66.188 F9000
G1 X155.111 Y71.558 Z66.000 F9000
G1 X157.370 Y73.740 Z65.812 F9000
G1 X159.472 Y76.075 Z65.625 F9000
G1 X161.406 Y78.550 Z65.438 F9000
G1 X163.162 Y81.154 Z65.250 F9000
G1 X164.733 Y83.874 Z65.062 F9000
G1 X166.110 Y86.697 Z64.875 F9000
G1 X167.286 Y89.609 Z64.688 F9000
G1 X168.257 Y92.596 Z64.500 F9000
G1 X169.017 Y95.644 Z64.312 F9000
G1 X169.562 Y98.737 Z64.125 F9000
G1 X169.890 Y101.861 Z63.938 F9000
G1 X170.000 Y105.000 Z63.750 F9000
G1 X169.890 Y108.139 Z63.562 F9000
G1 X169.562 Y111.263 Z63.375 F9000
G1 X169.017 Y114.356 Z63.188 F9000
G1 X168.257 Y117.404 Z63.000 F9000
G1 X167.286 Y120.391 Z62.812 F9000
G1 X166.110 Y123.303 Z62.625 F9000
G1 X164.733 Y126.126 Z62.438 F9000
G1 X163.162 Y128.846 Z62.250 F9000
G1 X161.406 Y131.450 Z62.063 F9000
G1 X159.472 Y133.925 Z61.875 F9000
G1 X157.370 Y136.260 Z61.688 F9000
G1 X155.111 Y138.442 Z61.500 F9000
G1 X152.705 Y140.460 Z61.312 F9000
G1 X150.164 Y142.307 Z61.125 F9000
G1 X147.500 Y143.971 Z60.938 F9000
G1 X144.727 Y145.446 Z60.750 F9000
G1 X141.857 Y146.723 Z60.562 F9000
G1 X138.906 Y147.798 Z60.375 F9000
G1 X135.886 Y148.663 Z60.188 F9000
G1 X132.814 Y149.316 Z60.000 F9000
G1 X129.704 Y149.753 Z59.812 F9000
G1 X126.570 Y149.973 Z59.625 F9000
G1 X123.430 Z59.438 F9000
G1 X120.296 Y149.753 Z59.250 F9000
G1 X117.186 Y149.316 Z59.062 F9000
G1 X114.114 Y148.663 Z58.875 F9000
G1 X111.094 Y147.798 Z58.688 F9000
G1 X108.143 Y146.723 Z58.500 F9000
G1 X105.273 Y145.446 Z58.312 F9000
G1 X102.500 Y143.971 Z58.125 F9000
G1 X99.836 Y142.307 Z57.938 F9000
G1 X97.295 Y140.460 Z57.750 F9000
G1 X94.889 Y138.442 Z57.563 F9000
G1 X92.630 Y136.260 Z57.375 F9000
G1 X90.528 Y133.925 Z57.187 F9000
G1 X88.594 Y131.450 Z57.000 F9000
G1 X86.838 Y128.846 Z56.812 F9000
G1 X85.267 Y126.126 Z56.625 F9000
G1 X83.890 Y123.303 Z56.438 F9000
G1 X82.714 Y120.391 Z56.250 F9000
G1 X81.743 Y117.404 Z56.062 F9000
G1 X80.983 Y114.356 Z55.875 F9000
G1 X80.438 Y111.263 Z55.688 F9000
G1 X80.110 Y108.139 Z55.500 F9000
G1 X80.000 Y105.000 Z55.312 F9000
G1 X80.110 Y101.861 Z55.125 F9000
G1 X80.438 Y98.737 Z54.938 F9000
G1 X80.983 Y95.644 Z54.750 F9000
G1 X81.743 Y92.596 Z54.562 F9000
G1 X82.714 Y89.609 Z54.375 F9000
G1 X83.890 Y86.697 Z54.188 F9000
G1 X85.267 Y83.874 Z54.000 F9000
G1 X86.838 Y81.154 Z53.813 F9000
G1 X88.594 Y78.550 Z53.625 F9000
G1 X90.528 Y76.075 Z53.438 F9000
G1 X92.630 Y73.740 Z53.250 F9000
G1 X94.889 Y71.558 Z53.062 F9000
G1 X97.295 Y69.540 Z52.875 F9000
G1 X99.836 Y67.693 Z52.687 F9000
G1 X102.500 Y66.029 Z52.500 F9000
G1 X105.273 Y64.554 Z52.312 F9000
G1 X108.143 Y63.277 Z52.125 F9000
G1 X111.094 Y62.202 Z51.938 F9000
G1 X114.114 Y61.337 Z51.750 F9000
G1 X117.186 Y60.684 Z51.562 F9000
G1 X120.296 Y60.247 Z51.375 F9000
G1 X123.430 Y60.027 Z51.188 F9000
G1 X126.570 Z51.000 F9000
G1 X129.704 Y60.247 Z50.812 F9000
G1 X132.814 Y60.684 Z50.625 F9000
G1 X135.886 Y61.337 Z50.438 F9000
G1 X138.906 Y62.202 Z50.250 F9000
G1 X141.857 Y63.277 Z50.062 F9000
G1 X144.727 Y64.554 Z49.875 F9000
G1 X147.500 Y66.029 Z49.688 F9000
G1 X150.164 Y67.693 Z49.500 F9000
G1 X152.705 Y69.540 Z49.313 F9000
G1 X155.111 Y71.558 Z49.125 F9000
G1 X157.370 Y73.740 Z48.937 F9000
G1 X159.472 Y76.075 Z48.750 F9000
G1 X161.406 Y78.550 Z48.562 F9000
G1 X163.162 Y81.154 Z48.375 F9000
G1 X164.733 Y83.874 Z48.188 F9000
G1 X166.110 Y86.697 Z48.000 F9000
G1 X167.286 Y89.609 Z47.812 F9000
G1 X168.257 Y92.596 Z47.625 F9000
G1 X169.017 Y95.644 Z47.438 F9000
G1 X169.562 Y98.737 Z47.250 F9000
G1 X169.890 Y101.861 Z47.062 F9000
G1 X170.000 Y105.000 Z46.875 F9000
G1 X169.890 Y108.139 Z46.688 F9000
G1 X169.562 Y111.263 Z46.500 F9000
G1 X169.017 Y114.356 Z46.312 F9000
G1 X168.257 Y117.404 Z46.125 F9000
G1 X167.286 Y120.391 Z45.938 F9000
G1 X166.110 Y123.303 Z45.750 F9000
G1 X164.733 Y126.126 Z45.563 F9000
G1 X163.162 Y128.846 Z45.375 F9000
G1 X161.406 Y131.450 Z45.188 F9000
G1 X159.472 Y133.925 Z45.000 F9000
G1 X157.370 Y136.260 Z44.813 F9000
G1 X155.111 Y138.442 Z44.625 F9000
G1 X152.705 Y140.460 Z44.437 F9000
G1 X150.164 Y142.307 Z44.250 F9000
G1 X147.500 Y143.971 Z44.062 F9000
G1 X144.727 Y145.446 Z43.875 F9000
G1 X141.857 Y146.723 Z43.688 F9000
G1 X138.906 Y147.798 Z43.500 F9000
G1 X135.886 Y148.663 Z43.312 F9000
G1 X132.814 Y149.316 Z43.125 F9000
G1 X129.704 Y149.753 Z42.938 F9000
G1 X126.570 Y149.973 Z42.750 F9000
G1 X123.430 Z42.562 F9000
G1 X120.296 Y149.753 Z42.375 F9000
G1 X117.186 Y149.316 Z42.188 F9000
G1 X114.114 Y148.663 Z42.000 F9000
G1 X111.094 Y147.798 Z41.812 F9000
G1 X108.143 Y146.723 Z41.625 F9000
G1 X105.273 Y145.446 Z41.438 F9000
G1 X102.500 Y143.971 Z41.250 F9000
G1 X99.836 Y142.307 Z41.063 F9000
G1 X97.295 Y140.460 Z40.875 F9000
G1 X94.889 Y138.442 Z40.688 F9000
G1 X92.630 Y136.260 Z40.500 F9000
G1 X90.528 Y133.925 Z40.312 F9000
G1 X88.594 Y131.450 Z40.125 F9000
G1 X86.838 Y128.846 Z39.937 F9000
G1 X85.267 Y126.126 Z39.750 F9000
G1 X83.890 Y123.303 Z39.562 F9000
G1 X82.714 Y120.391 Z39.375 F9000
G1 X81.743 Y117.404 Z39.188 F9000
G1 X80.983 Y114.356 Z39.000 F9000
G1 X80.438 Y111.263 Z38.812 F9000
G1 X80.110 Y108.139 Z38.625 F9000
G1 X80.000 Y105.000 Z38.438 F9000
G1 X80.110 Y101.861 Z38.250 F9000
G1 X80.438 Y98.737 Z38.062 F9000
G1 X80.983 Y95.644 Z37.875 F9000
G1 X81.743 Y92.596 Z37.688 F9000
G1 X82.714 Y89.609 Z37.500 F9000
G1 X83.890 Y86.697 Z37.312 F9000
G1 X85.267 Y83.874 Z37.125 F9000
G1 X86.838 Y81.154 Z36.938 F9000
G1 X88.594 Y78.550 Z36.750 F9000
G1 X90.528 Y76.075 Z36.563 F9000
G1 X92.630 Y73.740 Z36.375 F9000
G1 X94.889 Y71.558 Z36.187 F9000
G1 X97.295 Y69.540 Z36.000 F9000
G1 X99.836 Y67.693 Z35.812 F9000
G1 X102.500 Y66.029 Z35.625 F9000
G1 X105.273 Y64.554 Z35.437 F9000
G1 X108.143 Y63.277 Z35.250 F9000
G1 X111.094 Y62.202 Z35.062 F9000
G1 X114.114 Y61.337 Z34.875 F9000
G1 X117.186 Y60.684 Z34.688 F9000
G1 X120.296 Y60.247 Z34.500 F9000
G1 X123.430 Y60.027 Z34.312 F9000
G1 X126.570 Z34.125 F9000
G1 X129.704 Y60.247 Z33.938 F9000
G1 X132.814 Y60.684 Z33.750 F9000
G1 X135.886 Y61.337 Z33.562 F9000
G1 X138.906 Y62.202 Z33.375 F9000
G1 X141.857 Y63.277 Z33.188 F9000
G1 X144.727 Y64.554 Z33.000 F9000
G1 X147.500 Y66.029 Z32.813 F9000
G1 X150.164 Y67.693 Z32.625 F9000
G1 X152.705 Y69.540 Z32.438 F9000
G1 X155.111 Y71.558 Z32.250 F9000
G1 X157.370 Y73.740 Z32.062 F9000
G1 X159.472 Y76.075 Z31.875 F9000
G1 X161.406 Y78.550 Z31.687 F9000
G1 X163.162 Y81.154 Z31.500 F9000
G1 X164.733 Y83.874 Z31.312 F9000
G1 X166.110 Y86.697 Z31.125 F9000
G1 X167.286 Y89.609 Z30.937 F9000
G1 X168.257 Y92.596 Z30.750 F9000
G1 X169.017 Y95.644 Z30.562 F9000
G1 X169.562 Y98.737 Z30.375 F9000
G1 X169.890 Y101.861 Z30.188 F9000
G1 X170.000 Y105.000 Z30.000 F9000
G1 X125.000 Z97.500 F9000
G4 P400
M400
M117 Prusawire - CoreXZ
RESPOND MSG="Prusawire - CoreXZ"
; end of demo - motors stay enabled so the gantry holds position
